{
"type": "FeatureCollection",
"name": "Sonian_forest_evac_area",
"crs": { "type": "name", "properties": { "name": "urn:ogc:def:crs:OGC:1.3:CRS84" } },
"features": [
{ "type": "Feature", "properties": { "fid": 321, "gid": 321, "pgs_id": 12642, "name_f": "Forêt de Soignes", "name_n": "Zoniënwoud", "code": "son", "surface": 16087539.0, "type_f": "Espace vert", "type_n": "Groene ruimte", "subtype_f": "bois", "subtype_n": "bos", "green_manager_f": "Bruxelles Environnement", "green_manager_n": "Leefmilieu Brussel", "green_owner_f": "Commune", "green_owner_n": "Gemeente", "municipality_f": "Auderghem; Woluwe-Saint-Pierre; Uccle; Watermael-Boitsfort", "municipality_n": "Oudergem; Sint-Pieters-Woluwe; Ukkel; Watermaal-Bosvoorde", "management_plan": "true", "security": "false", "accessibility_by_law": "true", "opening_times": "false", "potentiel": "false", "permeability_above_30perc": "true", "temporary": "false", "on_roof": "false" }, "geometry": { "type": "MultiPolygon", "coordinates": [ [ [ [ 4.364938638620956, 50.797910176291246 ], [ 4.36483528631002, 50.799178193960209 ], [ 4.364840853527086, 50.799287498992392 ], [ 4.365132082513796, 50.799281541232141 ], [ 4.365446652229049, 50.801912207564634 ], [ 4.365467728516149, 50.801953790801662 ], [ 4.366422088859478, 50.803393270284779 ], [ 4.366424628662046, 50.80339632656554 ], [ 4.369178158602261, 50.805708187953201 ], [ 4.36918247191275, 50.805710798477413 ], [ 4.372771504761179, 50.807292609273489 ], [ 4.376950389568757, 50.808106752736748 ], [ 4.376977889429948, 50.808109271828101 ], [ 4.381876181639554, 50.808016044193025 ], [ 4.382293518993813, 50.807961438532004 ], [ 4.384565194308179, 50.807664514896338 ], [ 4.384922276175338, 50.807618612517139 ], [ 4.385057223245695, 50.807601261859283 ], [ 4.385520027826288, 50.807536638607004 ], [ 4.385985269340755, 50.807466490660545 ], [ 4.38636359915454, 50.807417794799356 ], [ 4.386889390976453, 50.807350177966462 ], [ 4.386992659367269, 50.807336895045808 ], [ 4.387065189666602, 50.807327440814078 ], [ 4.387175250018023, 50.807312904698321 ], [ 4.387195504441998, 50.807310219834953 ], [ 4.387235893914707, 50.807304846437582 ], [ 4.38769245892681, 50.807244089182461 ], [ 4.388108000201986, 50.80718889389842 ], [ 4.388135902867912, 50.807185169049042 ], [ 4.388870456938585, 50.80708661899034 ], [ 4.389155598628755, 50.807048598583002 ], [ 4.389600182900701, 50.806989316801499 ], [ 4.389759891223847, 50.806967411174796 ], [ 4.390102911388939, 50.80691904964317 ], [ 4.390912556834715, 50.806815963442055 ], [ 4.391189754724888, 50.80678066848219 ], [ 4.39141169841256, 50.806751237255149 ], [ 4.392204465429838, 50.806641909993829 ], [ 4.392496920704724, 50.806601577197405 ], [ 4.392691750632058, 50.806574709389778 ], [ 4.393123251571753, 50.80651574847144 ], [ 4.393541029086793, 50.806458854347412 ], [ 4.393692527296594, 50.806438835368034 ], [ 4.393917780810231, 50.806409075928173 ], [ 4.394143931264148, 50.806379188516786 ], [ 4.394439607216333, 50.80634011821126 ], [ 4.394918133701864, 50.806271392464772 ], [ 4.395970662365895, 50.806108046161597 ], [ 4.395977468397115, 50.806106990748127 ], [ 4.395985596849414, 50.806105730265827 ], [ 4.396074423723412, 50.806091942536874 ], [ 4.398628852630701, 50.805356467209641 ], [ 4.398709684858966, 50.80536697368477 ], [ 4.402780447375661, 50.805142674601797 ], [ 4.403130545001384, 50.805090431735479 ], [ 4.403321243981175, 50.80506488064816 ], [ 4.403815382024908, 50.804992802247909 ], [ 4.403991134669509, 50.804965060479589 ], [ 4.406230477895027, 50.804482817561954 ], [ 4.40626664560347, 50.804472827302007 ], [ 4.409241298553976, 50.803360449201406 ], [ 4.409273629433703, 50.803344706002036 ], [ 4.411273942800319, 50.80215937084219 ], [ 4.411322710033892, 50.802124293322152 ], [ 4.412324808907692, 50.801255195407521 ], [ 4.413167635445885, 50.801199146567463 ], [ 4.414190176913731, 50.802078399699646 ], [ 4.415948502728424, 50.803710828663135 ], [ 4.416197214900679, 50.803934342346174 ], [ 4.417504349852709, 50.805071857591585 ], [ 4.417739194469191, 50.805276299860665 ], [ 4.418221263731545, 50.805695892446586 ], [ 4.419574419464233, 50.806873524402924 ], [ 4.420322352402382, 50.807372372797047 ], [ 4.422076023756397, 50.808754627625191 ], [ 4.42539817399263, 50.810218007138964 ], [ 4.429237310311186, 50.811027624038523 ], [ 4.429577570098022, 50.8110664539116 ], [ 4.428616564568062, 50.812988630088128 ], [ 4.428434088553195, 50.813727667318553 ], [ 4.427918214998251, 50.815704961599188 ], [ 4.427912695465499, 50.815726275637743 ], [ 4.42791242906175, 50.81572731216572 ], [ 4.427894027633126, 50.817475240762178 ], [ 4.427856534277471, 50.817569381561363 ], [ 4.427783692260898, 50.818080412920835 ], [ 4.427634384004497, 50.819127866699461 ], [ 4.427600222466726, 50.819367511575024 ], [ 4.427491329436648, 50.820131385013347 ], [ 4.427778569424393, 50.82290926889943 ], [ 4.429393850680118, 50.825498275973189 ], [ 4.432182439821086, 50.827650076448549 ], [ 4.435876962053659, 50.829158246257421 ], [ 4.440123024936596, 50.829878089233766 ], [ 4.440767936610047, 50.829921569883417 ], [ 4.440908202244365, 50.82993102501645 ], [ 4.441184909982699, 50.829949674415879 ], [ 4.441565311346815, 50.829975319449936 ], [ 4.441799411330896, 50.82999109712059 ], [ 4.44200954000067, 50.830005264415483 ], [ 4.442161894537701, 50.830015535107385 ], [ 4.442325999992562, 50.830026595824343 ], [ 4.442632352307603, 50.830047239005758 ], [ 4.442851388619752, 50.830062002092369 ], [ 4.443049414864841, 50.830075350003206 ], [ 4.443160031417622, 50.830082805678138 ], [ 4.443467664227488, 50.830133499614462 ], [ 4.444169392709632, 50.830188652326378 ], [ 4.444291876157751, 50.830198278172091 ], [ 4.445387590316172, 50.830284384698203 ], [ 4.445991790414643, 50.830265899741008 ], [ 4.446379093071188, 50.830329954195456 ], [ 4.447426942897641, 50.830404068830546 ], [ 4.447848790753308, 50.83043391067438 ], [ 4.448187995301339, 50.830457897223404 ], [ 4.448362240187184, 50.830470226746684 ], [ 4.448831819629166, 50.830506297307707 ], [ 4.449090058384499, 50.830526595935503 ], [ 4.449236071768392, 50.830538070467277 ], [ 4.44937991820183, 50.830549374875964 ], [ 4.449675225992276, 50.830572582858636 ], [ 4.450097508496391, 50.830605769397728 ], [ 4.450195067056884, 50.83061392292732 ], [ 4.450405340234635, 50.830629966799414 ], [ 4.45165129913778, 50.830727869021437 ], [ 4.451982344223028, 50.830753884146851 ], [ 4.452370263061671, 50.830784357272847 ], [ 4.452641635452784, 50.830805680448385 ], [ 4.452897287778838, 50.830825765788397 ], [ 4.453265191021326, 50.830854672029453 ], [ 4.453470676440559, 50.830870811605813 ], [ 4.453757861461647, 50.830893369386402 ], [ 4.454036657353794, 50.830915269985013 ], [ 4.45471746870686, 50.830968744746137 ], [ 4.455873591926286, 50.831059552731809 ], [ 4.456326282815914, 50.831095105078468 ], [ 4.456371271625484, 50.831098638204395 ], [ 4.456382851439385, 50.831098312478083 ], [ 4.456393818064052, 50.831100277479116 ], [ 4.456526463466966, 50.831111153472072 ], [ 4.458505306884605, 50.83128332312895 ], [ 4.458551378248642, 50.831287282489306 ], [ 4.459603595085362, 50.831376593429766 ], [ 4.459998554639072, 50.831421217665984 ], [ 4.460841543599429, 50.83149291177233 ], [ 4.461425274039279, 50.83154416953262 ], [ 4.462133754594975, 50.831606378557694 ], [ 4.463572316945432, 50.831732679701581 ], [ 4.463997191714698, 50.831769978927554 ], [ 4.464675166802862, 50.83182949350396 ], [ 4.465193636847602, 50.831875002554703 ], [ 4.465783966471375, 50.831926817329439 ], [ 4.466394904568407, 50.831980439761459 ], [ 4.466426826851893, 50.831980063233829 ], [ 4.46645159633794, 50.831984839405841 ], [ 4.466852273510831, 50.832022038822046 ], [ 4.467324342344638, 50.832065864507243 ], [ 4.467744070173423, 50.832104827635483 ], [ 4.468095811433867, 50.832137473110919 ], [ 4.468463821563335, 50.832171638709895 ], [ 4.471284987902167, 50.832433468509137 ], [ 4.47223947405477, 50.832522036255234 ], [ 4.476769829906215, 50.832479492293992 ], [ 4.481048109481256, 50.831534942755219 ], [ 4.484638246391883, 50.82978466686442 ], [ 4.487174415015267, 50.827407058009861 ], [ 4.487183802427011, 50.827394224623433 ], [ 4.48830170845592, 50.825865897528224 ], [ 4.48940543489676, 50.824356847293799 ], [ 4.490644848996445, 50.821502486926867 ], [ 4.490353337941145, 50.818547894177399 ], [ 4.488562788770994, 50.815813469316296 ], [ 4.485467572807623, 50.813595686101493 ], [ 4.481403384769385, 50.812134966466957 ], [ 4.4768108241204, 50.811589644119607 ], [ 4.475625726518777, 50.81169967849457 ], [ 4.472589035845672, 50.811500276585917 ], [ 4.472500807746012, 50.811513060565801 ], [ 4.471897538320023, 50.811458383598335 ], [ 4.472073453705329, 50.810257775653376 ], [ 4.472069860562283, 50.810176378535807 ], [ 4.471640019512464, 50.808775891768022 ], [ 4.471712818805478, 50.808744022294697 ], [ 4.471921605693269, 50.808650850818779 ], [ 4.472131516777466, 50.808555374689774 ], [ 4.472520503483234, 50.808371983791517 ], [ 4.472635222623453, 50.808315943197307 ], [ 4.472673710035067, 50.80829714193208 ], [ 4.473101259419284, 50.808079808897944 ], [ 4.473149712341531, 50.808054188672145 ], [ 4.473198333631589, 50.808028479355727 ], [ 4.47332008092742, 50.807959167123663 ], [ 4.47339034795775, 50.807930751305378 ], [ 4.47397364682446, 50.807778839863261 ], [ 4.474796026234905, 50.807435803992632 ], [ 4.474923523762834, 50.80738497752295 ], [ 4.474964730670182, 50.807368487806045 ], [ 4.475130714317333, 50.807301813101915 ], [ 4.475316749097274, 50.80722578776885 ], [ 4.475614969357184, 50.807101817300477 ], [ 4.475716352736702, 50.807059276901441 ], [ 4.476311419634615, 50.80680725281259 ], [ 4.476528663862736, 50.806716798550944 ], [ 4.476728191743168, 50.806631821079499 ], [ 4.476798390752386, 50.806607658133061 ], [ 4.476966070540325, 50.806540529756106 ], [ 4.477177373370779, 50.806451787006814 ], [ 4.477188376808475, 50.80644746603533 ], [ 4.477548084547848, 50.806309648525243 ], [ 4.477959397258546, 50.806145899025196 ], [ 4.478459917685545, 50.805938974696105 ], [ 4.479219493936689, 50.805627147528661 ], [ 4.480717400002931, 50.805014953812837 ], [ 4.481153974805094, 50.804829169503371 ], [ 4.481500874734712, 50.804675556757871 ], [ 4.481868740077684, 50.804512657969809 ], [ 4.482182794967697, 50.804369507990138 ], [ 4.482631402855869, 50.804159083775865 ], [ 4.483055774637583, 50.803952054227238 ], [ 4.483348971431607, 50.803803347276656 ], [ 4.483687613215591, 50.803626069328296 ], [ 4.48405957696906, 50.803425124856055 ], [ 4.484320201784739, 50.80328081109699 ], [ 4.484694664371192, 50.803068299968231 ], [ 4.485101242848234, 50.802828302331271 ], [ 4.485354721731432, 50.802672689561774 ], [ 4.485442860804787, 50.802618107598732 ], [ 4.485820273856079, 50.802382344868128 ], [ 4.485991474791126, 50.802273554115651 ], [ 4.486164332500205, 50.802161816143226 ], [ 4.486372225610217, 50.802024553778523 ], [ 4.486770865843205, 50.801755708811129 ], [ 4.486950609652785, 50.801634434255284 ], [ 4.487177681818904, 50.801475604812239 ], [ 4.487503023313709, 50.801253683811815 ], [ 4.487604229406251, 50.801183914875658 ], [ 4.487947888129891, 50.800944482104399 ], [ 4.488160885579522, 50.800796081492322 ], [ 4.488533639732394, 50.80052571629701 ], [ 4.489038056955413, 50.800144753303805 ], [ 4.491268398116347, 50.797819383482498 ], [ 4.492298480358361, 50.795177596632989 ], [ 4.492034104628504, 50.792461501025933 ], [ 4.490499711066018, 50.789919974306322 ], [ 4.490440534341067, 50.789854065998547 ], [ 4.489851064990615, 50.789253753258052 ], [ 4.488923602827723, 50.78838713494136 ], [ 4.488777920379086, 50.788251006051809 ], [ 4.488512560972448, 50.788003047147335 ], [ 4.488315770502691, 50.787819149314785 ], [ 4.488186474636084, 50.787698330909215 ], [ 4.487891635111292, 50.787422802917959 ], [ 4.487678680236665, 50.787223806406367 ], [ 4.487455015512475, 50.787014795364499 ], [ 4.487185962089749, 50.786763364466601 ], [ 4.487086523202327, 50.786670433821214 ], [ 4.486804403644385, 50.786406796072036 ], [ 4.486587620491936, 50.786204206667506 ], [ 4.486369851727386, 50.786000694018909 ], [ 4.486266376099683, 50.785903991601273 ], [ 4.486120243951872, 50.785966828855258 ], [ 4.484443711243143, 50.784496486009921 ], [ 4.480451264129421, 50.782758478297339 ], [ 4.480293296406302, 50.782712531090773 ], [ 4.479874339813507, 50.782595820555578 ], [ 4.479471508595072, 50.782488482767242 ], [ 4.479156845743261, 50.782402519502391 ], [ 4.479035075855877, 50.782369678929562 ], [ 4.478746229013801, 50.782292785168799 ], [ 4.478404014600297, 50.782201044031908 ], [ 4.478389012686129, 50.782197028710669 ], [ 4.478061428466471, 50.78210948932734 ], [ 4.478017230194991, 50.782097733987463 ], [ 4.477837917690178, 50.78205026809394 ], [ 4.477591079132128, 50.781983929890636 ], [ 4.477425893545309, 50.781940313095454 ], [ 4.477179531216692, 50.781876414666705 ], [ 4.477002863086786, 50.78182764273425 ], [ 4.476903089258927, 50.78180038627643 ], [ 4.476657215701182, 50.78173392431318 ], [ 4.476458863349339, 50.781680018933294 ], [ 4.476423442314737, 50.781670428741997 ], [ 4.476015238862655, 50.781560322560289 ], [ 4.475989995603028, 50.781553531809941 ], [ 4.475807081099076, 50.781504457580965 ], [ 4.47561901693726, 50.781455007578728 ], [ 4.475609033347602, 50.781452435560482 ], [ 4.475453903340876, 50.781410006777357 ], [ 4.475189856813446, 50.781339784365343 ], [ 4.474946110522759, 50.781276787218893 ], [ 4.474744495348695, 50.781222758039526 ], [ 4.474408927180573, 50.781131438573254 ], [ 4.473993336441077, 50.781016338908998 ], [ 4.473796852388664, 50.780963035364636 ], [ 4.473525952898416, 50.780891069575603 ], [ 4.472138541217927, 50.780519346460245 ], [ 4.470697060376009, 50.78012812114499 ], [ 4.470306620872806, 50.780022317317908 ], [ 4.470281278617236, 50.780010923927939 ], [ 4.470164076829795, 50.779958772382145 ], [ 4.470047358026077, 50.779906829239835 ], [ 4.469934359560185, 50.77985653289587 ], [ 4.46978547951269, 50.779790166693338 ], [ 4.469680034291868, 50.779743231000573 ], [ 4.469638382300742, 50.779724762533853 ], [ 4.469597067445842, 50.779706513347563 ], [ 4.469501468054635, 50.779664309964048 ], [ 4.469315311626619, 50.779578474837301 ], [ 4.469167523412194, 50.779511245166603 ], [ 4.468749108289114, 50.779323469572248 ], [ 4.468576953847035, 50.779247415506113 ], [ 4.468255122326056, 50.779107467409837 ], [ 4.467876400162947, 50.77893660864067 ], [ 4.467763181483762, 50.7788854695482 ], [ 4.467658705533188, 50.778838728049578 ], [ 4.467316348590839, 50.778687021134658 ], [ 4.467229421430449, 50.778648806437623 ], [ 4.467203911289879, 50.778637680818711 ], [ 4.467183532708489, 50.778628360711942 ], [ 4.46709634142425, 50.77858880076397 ], [ 4.46683070591662, 50.778469237556735 ], [ 4.466801665974432, 50.778456201247749 ], [ 4.466362223927828, 50.778259454122463 ], [ 4.466338914456588, 50.778249040162649 ], [ 4.466074973996899, 50.778131370634995 ], [ 4.46599397217948, 50.778095524994526 ], [ 4.465753037984743, 50.777989693452383 ], [ 4.465452185246939, 50.77785320529113 ], [ 4.465405590842871, 50.77783215661033 ], [ 4.465124778949954, 50.777705841887979 ], [ 4.465089631874442, 50.77769008274732 ], [ 4.464931088429868, 50.777619223917853 ], [ 4.464745312304771, 50.77753511143905 ], [ 4.464714830222285, 50.777521348709335 ], [ 4.464142863307645, 50.777263821947159 ], [ 4.462690403837501, 50.776603693210056 ], [ 4.462324777121244, 50.77644295946363 ], [ 4.462100618039704, 50.776347682310529 ], [ 4.46187154300904, 50.776250314824772 ], [ 4.461656735268278, 50.776167807904613 ], [ 4.461630481553068, 50.776151889862355 ], [ 4.460958364190776, 50.775839709777294 ], [ 4.460664797825509, 50.775703353686382 ], [ 4.459945306861617, 50.775390264895229 ], [ 4.459712861329787, 50.775295650765791 ], [ 4.459552436541574, 50.775230354087064 ], [ 4.459461807177977, 50.775319873932581 ], [ 4.458203364555142, 50.774773480472348 ], [ 4.458258873953846, 50.774711528695782 ], [ 4.457870040354881, 50.774571453512351 ], [ 4.456149805794513, 50.773951738324747 ], [ 4.456056399595671, 50.773916800274755 ], [ 4.453627087534657, 50.773008074135127 ], [ 4.453569409144219, 50.772986613617299 ], [ 4.453493354571613, 50.772958468456906 ], [ 4.453334687863503, 50.77290061853008 ], [ 4.452336611899995, 50.772542127493914 ], [ 4.452180616838172, 50.772486094203423 ], [ 4.450933572428923, 50.772037425940781 ], [ 4.450540442901424, 50.771895975345956 ], [ 4.448686382803727, 50.771228349377019 ], [ 4.447722336163424, 50.770881187601994 ], [ 4.446604836280867, 50.770477347558383 ], [ 4.445714314662582, 50.770155511524919 ], [ 4.444244552653509, 50.769619514533716 ], [ 4.444178293511054, 50.769595500513702 ], [ 4.443360414906021, 50.769300924404412 ], [ 4.441970822234976, 50.768801375315078 ], [ 4.441305656874545, 50.768576844326894 ], [ 4.441069294120881, 50.76850210011974 ], [ 4.441056467912565, 50.768518411679274 ], [ 4.437168038286984, 50.767676238625256 ], [ 4.43285417163923, 50.76761174392616 ], [ 4.432814626499228, 50.767615002095788 ], [ 4.432341486121054, 50.767696584009521 ], [ 4.431978790320012, 50.767576998978456 ], [ 4.431355910119318, 50.767383746769667 ], [ 4.431189085315173, 50.767335157581392 ], [ 4.430738640918811, 50.767209914520194 ], [ 4.430028774336305, 50.767021778247113 ], [ 4.429770501688495, 50.766955210999058 ], [ 4.429121249425923, 50.766792568395488 ], [ 4.429006644155334, 50.766764222367364 ], [ 4.428104734731378, 50.766543996968331 ], [ 4.428102184780467, 50.766543364594597 ], [ 4.427766030653871, 50.766454837718186 ], [ 4.426863907843591, 50.76622838347317 ], [ 4.426839754288858, 50.766222336454774 ], [ 4.425415243516115, 50.765866644340299 ], [ 4.425392444127612, 50.765860965704562 ], [ 4.424135465297311, 50.765548676164258 ], [ 4.423884901565651, 50.76548190939252 ], [ 4.42124506954933, 50.764821381872309 ], [ 4.420287236817227, 50.764573162109173 ], [ 4.420022047470175, 50.764506404493346 ], [ 4.41813515100098, 50.764045269571909 ], [ 4.417868943116028, 50.763978834394649 ], [ 4.416845356229997, 50.763715568513426 ], [ 4.413564751112434, 50.762707061190689 ], [ 4.4134438830656, 50.762670348487759 ], [ 4.410172646542055, 50.761688698520665 ], [ 4.410035449309897, 50.761648092129192 ], [ 4.406608558160514, 50.760647858972774 ], [ 4.403371006314877, 50.759703443732171 ], [ 4.402677277238666, 50.75949897988923 ], [ 4.40254024287086, 50.759459151472782 ], [ 4.402408602030585, 50.759421426394887 ], [ 4.399454143950813, 50.758566643341346 ], [ 4.399400680365293, 50.758551259067232 ], [ 4.396780261307772, 50.757801332154699 ], [ 4.394246134281058, 50.757071215323471 ], [ 4.394217487561306, 50.757062985673855 ], [ 4.39212096700977, 50.756462446144887 ], [ 4.39056665947601, 50.756016465574668 ], [ 4.390496204070056, 50.755996395492794 ], [ 4.388960145438693, 50.755562002274196 ], [ 4.388953095397554, 50.755572033214321 ], [ 4.388612386573983, 50.755459959784673 ], [ 4.388542086177278, 50.755441273469067 ], [ 4.385909013565041, 50.75492561926329 ], [ 4.385892431897528, 50.754923464254894 ], [ 4.382212479068005, 50.754756113612878 ], [ 4.382205251624526, 50.754756384178165 ], [ 4.380751292433493, 50.754858784775813 ], [ 4.38073655433126, 50.754860314626377 ], [ 4.376770157660031, 50.755665256875943 ], [ 4.373343646734484, 50.757166664056591 ], [ 4.370752831916894, 50.759234947126963 ], [ 4.369221475639823, 50.761691569529631 ], [ 4.369215976608618, 50.761706528468224 ], [ 4.369200784371156, 50.761747970890838 ], [ 4.369190548972524, 50.761776102262139 ], [ 4.36914434554942, 50.761904026325588 ], [ 4.369110960271452, 50.761998809582678 ], [ 4.369089397526024, 50.762061620217914 ], [ 4.369074618740785, 50.76210518881102 ], [ 4.369059757101221, 50.762149535876759 ], [ 4.369010657127161, 50.762302574347537 ], [ 4.36898174423376, 50.762396876663864 ], [ 4.368929235744687, 50.76257802169993 ], [ 4.368906984068585, 50.762659468653716 ], [ 4.368849504168746, 50.762887184041844 ], [ 4.368819882427299, 50.763015017931899 ], [ 4.368766011815936, 50.763273500520974 ], [ 4.36874475220533, 50.763388299249186 ], [ 4.368714655018629, 50.763566058231305 ], [ 4.36870685986452, 50.763616850135165 ], [ 4.368693182385467, 50.763711114639911 ], [ 4.368686237643812, 50.763761906535962 ], [ 4.368672653836358, 50.763868635654077 ], [ 4.36866259112687, 50.763954037942902 ], [ 4.368642374051845, 50.764156264807546 ], [ 4.368631319605354, 50.764290840797024 ], [ 4.368615829719635, 50.76455297532484 ], [ 4.368611011919148, 50.764686562401558 ], [ 4.3686073442725, 50.764871106639987 ], [ 4.36860635513558, 50.765139359491542 ], [ 4.368606382268712, 50.765187792874258 ], [ 4.368606751244061, 50.765264537978666 ], [ 4.368605408014226, 50.765402450995879 ], [ 4.368602226274231, 50.765658744995818 ], [ 4.368601791746514, 50.765722130701469 ], [ 4.368601607716466, 50.765864099144302 ], [ 4.368600344063124, 50.766131282995993 ], [ 4.368594788897743, 50.766803867962388 ], [ 4.368593834663066, 50.766906696742247 ], [ 4.368590759300797, 50.767225319787542 ], [ 4.368590165657603, 50.767286585507236 ], [ 4.368590025603518, 50.767303686592818 ], [ 4.368587761305302, 50.767642148847742 ], [ 4.368587637424001, 50.767686779084073 ], [ 4.368587910046577, 50.767926230483958 ], [ 4.368588046595077, 50.768046163779772 ], [ 4.368587713398919, 50.768111315687889 ], [ 4.368587667924371, 50.768122262782953 ], [ 4.368586537799825, 50.76847609734746 ], [ 4.36860247306795, 50.768780718002247 ], [ 4.368602919195158, 50.768820074055462 ], [ 4.36860352374386, 50.768874252986635 ], [ 4.368618506351869, 50.769228706831761 ], [ 4.368626956607768, 50.769343810870815 ], [ 4.368633282575567, 50.769407365144829 ], [ 4.368580055224886, 50.769753472635479 ], [ 4.368578062014337, 50.769994578983443 ], [ 4.368572621281056, 50.770269219038255 ], [ 4.368571629107409, 50.770420096294941 ], [ 4.368572946264135, 50.77061793852377 ], [ 4.368572265290095, 50.77066755654112 ], [ 4.368569210646061, 50.770890127495896 ], [ 4.368568693125952, 50.770983209002623 ], [ 4.368569260607413, 50.771201099259599 ], [ 4.368565942677809, 50.771398226416665 ], [ 4.368565705258817, 50.771413556994851 ], [ 4.368561738767588, 50.771694035394013 ], [ 4.368561207076107, 50.771795548428976 ], [ 4.368562283424439, 50.772089124385644 ], [ 4.368561802236274, 50.772310035497441 ], [ 4.368558187844778, 50.772681641563103 ], [ 4.368557918211221, 50.772737145103946 ], [ 4.36855792273225, 50.773168052440255 ], [ 4.368553350153761, 50.773561653447736 ], [ 4.368553088214126, 50.773665276852277 ], [ 4.368554349960347, 50.773857567466877 ], [ 4.368551668684836, 50.774140025074097 ], [ 4.368551436844982, 50.774177258644258 ], [ 4.36855061290979, 50.774455557212349 ], [ 4.368550158617011, 50.774534213865863 ], [ 4.368547504663643, 50.774608868212901 ], [ 4.368543935338262, 50.774830328745594 ], [ 4.368544643913785, 50.77504435200494 ], [ 4.368539928234749, 50.775436462072953 ], [ 4.368539769488629, 50.775451258777942 ], [ 4.368538069962128, 50.775631474951702 ], [ 4.36853763997253, 50.775677534392088 ], [ 4.368537392811632, 50.775734423214359 ], [ 4.368537439742156, 50.775807111535023 ], [ 4.368536721908146, 50.775842839211911 ], [ 4.368536066949268, 50.776022568771005 ], [ 4.368535397930484, 50.776099907420146 ], [ 4.36853491704424, 50.776155339182694 ], [ 4.368534056874228, 50.776255789246321 ], [ 4.368530174149166, 50.776529926335165 ], [ 4.368526159228109, 50.776825996784417 ], [ 4.368525703243841, 50.776875466936673 ], [ 4.368525196285167, 50.776979402439146 ], [ 4.368500331750716, 50.77701010784336 ], [ 4.368467868009066, 50.777050200019239 ], [ 4.368400892389692, 50.777133988090497 ], [ 4.368294225120901, 50.777269177625456 ], [ 4.368201888615008, 50.777384234569141 ], [ 4.367954860793583, 50.777707899822289 ], [ 4.367944331457286, 50.777722429800932 ], [ 4.367931303462619, 50.777740460193023 ], [ 4.366784759631579, 50.780236549474516 ], [ 4.36681271746372, 50.782836272481468 ], [ 4.368013027169503, 50.785322201843933 ], [ 4.368624493742587, 50.785904567669412 ], [ 4.367675491148303, 50.787119600826721 ], [ 4.367657480566167, 50.787148996939905 ], [ 4.36724511278785, 50.787925057180743 ], [ 4.367218875780334, 50.787983040261665 ], [ 4.366930513298073, 50.788743789964776 ], [ 4.366920159728267, 50.788777501058973 ], [ 4.366772394528692, 50.789359889323926 ], [ 4.366750648077742, 50.789468145424337 ], [ 4.366727089774891, 50.789583713702385 ], [ 4.366703298948009, 50.78967840886623 ], [ 4.366648905642556, 50.789915152149504 ], [ 4.366200321435646, 50.792067985704044 ], [ 4.366195716073684, 50.792087172336998 ], [ 4.366188909083712, 50.792117390367515 ], [ 4.366178330154801, 50.792154566449838 ], [ 4.366125845432847, 50.792350629724226 ], [ 4.366122768650853, 50.792362168914536 ], [ 4.366069432284047, 50.792562996649735 ], [ 4.365964895831725, 50.793031670840286 ], [ 4.365933864457046, 50.793203279564395 ], [ 4.365897291261385, 50.793386380154857 ], [ 4.365889703410527, 50.793425039994553 ], [ 4.365877846530972, 50.793486537709391 ], [ 4.365851869619319, 50.793612396598583 ], [ 4.365838612034434, 50.793678535673976 ], [ 4.365832547662486, 50.793709713639075 ], [ 4.36582954926844, 50.793716013560541 ], [ 4.36580657299432, 50.793821018392677 ], [ 4.365730701016437, 50.794167760799709 ], [ 4.365698054337496, 50.794307434482995 ], [ 4.365663759555447, 50.794463592973585 ], [ 4.365654838255934, 50.79450699950641 ], [ 4.36564167047284, 50.794565595130948 ], [ 4.36562923332973, 50.79462222897174 ], [ 4.365607810848913, 50.794722103403878 ], [ 4.365597375080434, 50.794771793716336 ], [ 4.365588760113892, 50.794813707288981 ], [ 4.365581237266574, 50.794844954688912 ], [ 4.365550864064424, 50.794977753747538 ], [ 4.365498900828048, 50.795217539675022 ], [ 4.365498662627572, 50.795218638819591 ], [ 4.365387330507163, 50.795735086790394 ], [ 4.365356891370707, 50.79588577313757 ], [ 4.365342121176092, 50.795964142875562 ], [ 4.365334781763901, 50.795997904425491 ], [ 4.365293626579539, 50.796182173159423 ], [ 4.365288995690515, 50.7962030844187 ], [ 4.365252085091265, 50.79637119156402 ], [ 4.365222916170855, 50.796498245788385 ], [ 4.365173584595532, 50.796702619492976 ], [ 4.365162223241798, 50.79675055180666 ], [ 4.365091353609365, 50.797055127780666 ], [ 4.365059194965675, 50.797289060043049 ], [ 4.365023135793989, 50.797366618873369 ], [ 4.364999284174998, 50.797482719344288 ], [ 4.364996589988155, 50.797516962765151 ], [ 4.364987577477573, 50.79753592273962 ], [ 4.364957894395889, 50.797673921784963 ], [ 4.364955582707585, 50.797702284663693 ], [ 4.364947202373352, 50.797735297253318 ], [ 4.364950339158054, 50.797761532589071 ], [ 4.364930448145318, 50.797803778325864 ], [ 4.364908540189956, 50.797907625950643 ], [ 4.364938638620956, 50.797910176291246 ] ] ] ] } }
]
}
