{
"type": "FeatureCollection",
"name": "Perimeter_Sc4_inhabitant",
"crs": { "type": "name", "properties": { "name": "urn:ogc:def:crs:OGC:1.3:CRS84" } },
"features": [
{ "type": "Feature", "properties": { "fid": 17, "Zones": "Scénario 4", "communes": "Forest_BXL-Ville_Saint-Josse-Anderlecht_Saint_Gilles", "Habitants": 103195, "Male": 54029, "Female": 49166, "Group0_14": 19792, "Group_15_64": 73747, "Group65+": 9656 }, "geometry": { "type": "Polygon", "coordinates": [ [ [ 4.35299985128235, 50.871007762825123 ], [ 4.357945599851797, 50.873633999697503 ], [ 4.362219343289651, 50.873633956568035 ], [ 4.363122937265795, 50.870554873588453 ], [ 4.361145354500508, 50.868842149190939 ], [ 4.357185836690483, 50.860313001718623 ], [ 4.360632711581369, 50.859502227461149 ], [ 4.361031382753664, 50.853315459448851 ], [ 4.358539472982636, 50.850273317143696 ], [ 4.356381534162862, 50.845998982799102 ], [ 4.356294942098175, 50.844781102528508 ], [ 4.350765579794362, 50.839378638474436 ], [ 4.347692976392215, 50.837089049307558 ], [ 4.34241217377383, 50.834311793874654 ], [ 4.340466352904688, 50.830207924958195 ], [ 4.335858795734303, 50.828028815388222 ], [ 4.332192802194981, 50.824259762669804 ], [ 4.329249819204675, 50.821199833856063 ], [ 4.325505040068121, 50.820497408272409 ], [ 4.316672259700911, 50.818702784255699 ], [ 4.312606890092957, 50.820142366614434 ], [ 4.310752410186387, 50.819972514206306 ], [ 4.308378578867549, 50.821793545895623 ], [ 4.308376798292764, 50.823446089055672 ], [ 4.309323285205914, 50.825549736625703 ], [ 4.311690782228943, 50.829907436795629 ], [ 4.316012390531255, 50.832188964171984 ], [ 4.317988199418848, 50.836044009436314 ], [ 4.318427935021536, 50.838223660283433 ], [ 4.322058612429495, 50.840456421774995 ], [ 4.324015621281927, 50.843432583544491 ], [ 4.327022268969901, 50.84505095117715 ], [ 4.330726691493641, 50.844202965842825 ], [ 4.332793683395622, 50.845613229336507 ], [ 4.335635329857602, 50.848145616019742 ], [ 4.335474340251593, 50.848917980173148 ], [ 4.337423771553974, 50.84849490624358 ], [ 4.338365377376229, 50.850177241220713 ], [ 4.340211103009043, 50.852526278214356 ], [ 4.342305916564056, 50.854487263855503 ], [ 4.345456460826562, 50.857651972477683 ], [ 4.348394674428628, 50.862849497032933 ], [ 4.352178456685364, 50.864927599697573 ], [ 4.349874254506227, 50.867173803533447 ], [ 4.350348908304619, 50.867924985537449 ], [ 4.35299985128235, 50.871007762825123 ] ] ] } }
]
}
