{
"type": "FeatureCollection",
"name": "Sosian_forest",
"crs": { "type": "name", "properties": { "name": "urn:ogc:def:crs:OGC:1.3:CRS84" } },
"features": [
{ "type": "Feature", "properties": { "fid": 251, "gid": 251, "pgs_id": 12647, "name_f": "Bois de la Cambre", "name_n": "Ter Kamerenbos", "code": "cam", "surface": 1242342.75, "type_f": "Espace vert", "type_n": "Groene ruimte", "subtype_f": "parcs et squares", "subtype_n": "parken en pleinen", "green_manager_f": "Commune", "green_manager_n": "Gemeente", "green_owner_f": "Commune", "green_owner_n": "Gemeente", "municipality_f": "Bruxelles; Uccle", "municipality_n": "Brussel; Ukkel", "management_plan": "false", "security": "false", "accessibility_by_law": "true", "opening_times": "false", "potentiel": "false", "permeability_above_30perc": "true", "temporary": "false", "on_roof": "false" }, "geometry": { "type": "MultiPolygon", "coordinates": [ [ [ [ 4.371672934738603, 50.814496900720478 ], [ 4.368481444775274, 50.813993035013596 ], [ 4.368356974695193, 50.813974372998111 ], [ 4.367836724893106, 50.813894530626314 ], [ 4.367927852104695, 50.813655556470067 ], [ 4.368012674351204, 50.813437122367525 ], [ 4.368400692943118, 50.81245332688605 ], [ 4.368486705177049, 50.81219831424746 ], [ 4.368628712208623, 50.811876850888787 ], [ 4.368638502097227, 50.811844128707129 ], [ 4.36869598883321, 50.811700861196108 ], [ 4.368929920300824, 50.811095064186475 ], [ 4.369048252893766, 50.810797896211376 ], [ 4.36906231436518, 50.810762591911121 ], [ 4.36907431273251, 50.810730903810082 ], [ 4.369114396351572, 50.810625016279488 ], [ 4.369259506732194, 50.810280203446808 ], [ 4.369365203294071, 50.810065122720161 ], [ 4.369426191846773, 50.809959324177676 ], [ 4.369454218367768, 50.809910741199225 ], [ 4.369497289695462, 50.809842809646852 ], [ 4.36951784689075, 50.809810562728771 ], [ 4.369750904206274, 50.809445018423361 ], [ 4.369777919686367, 50.809453016108051 ], [ 4.370107219138288, 50.809343247054166 ], [ 4.370297045471128, 50.80925855288698 ], [ 4.370344577421799, 50.809300533419496 ], [ 4.370472692498809, 50.809242188329243 ], [ 4.370428565602783, 50.809199929101666 ], [ 4.370441058225475, 50.809194374361567 ], [ 4.370685786108301, 50.809052143531183 ], [ 4.371046569318465, 50.808846361720065 ], [ 4.371092228209839, 50.808820318806326 ], [ 4.371077800044741, 50.808746280443962 ], [ 4.371583929072212, 50.808637911200051 ], [ 4.371596629445756, 50.808635191830895 ], [ 4.371738750553234, 50.808402576020811 ], [ 4.372231989924475, 50.807595324132748 ], [ 4.372310889322877, 50.807466176596364 ], [ 4.372358268475306, 50.807388648491184 ], [ 4.372460076378473, 50.807222004349107 ], [ 4.372620482298736, 50.806959474678791 ], [ 4.372773879068148, 50.806708397815129 ], [ 4.371750213807374, 50.806651773350779 ], [ 4.371775624614421, 50.806605358923591 ], [ 4.371911352745995, 50.806357418113379 ], [ 4.371936661232211, 50.806311725624582 ], [ 4.371976237059743, 50.806225112800419 ], [ 4.372201399300057, 50.805633378832923 ], [ 4.372449197481147, 50.805426240161282 ], [ 4.372475995033448, 50.805422302487031 ], [ 4.372624510107176, 50.805417192956895 ], [ 4.372732182649375, 50.805421177066052 ], [ 4.372836747531927, 50.805434534456225 ], [ 4.373839906723942, 50.805473773906492 ], [ 4.375197599308322, 50.805519366345194 ], [ 4.375456216757669, 50.805530813374205 ], [ 4.376003420874617, 50.80555050847007 ], [ 4.376053921189087, 50.805557190270513 ], [ 4.376151558235653, 50.805559793490261 ], [ 4.376245963754285, 50.805568598922775 ], [ 4.376382062848714, 50.805511925754537 ], [ 4.37641522344173, 50.805419902682821 ], [ 4.376473594466107, 50.805261001149027 ], [ 4.376677667343165, 50.804770629868088 ], [ 4.376838324951441, 50.804388601231985 ], [ 4.376978434949248, 50.804182305951301 ], [ 4.377011965167335, 50.804147198946204 ], [ 4.376919924139617, 50.804111795231087 ], [ 4.377040292875726, 50.803835517799321 ], [ 4.377044554979679, 50.80383521486425 ], [ 4.377058515395283, 50.803798883714549 ], [ 4.377142224308558, 50.803593764210412 ], [ 4.377183030047057, 50.803495929591051 ], [ 4.377237505629419, 50.803365273636793 ], [ 4.377364842342364, 50.803051025550552 ], [ 4.377479070152443, 50.802771592109913 ], [ 4.377552408854291, 50.80261442068128 ], [ 4.377570959420042, 50.80256711861378 ], [ 4.377577816370409, 50.802545917720614 ], [ 4.377567481441522, 50.802539622787158 ], [ 4.377567196522994, 50.802533689661338 ], [ 4.377595225887635, 50.802466111649473 ], [ 4.377659214389839, 50.802291861387339 ], [ 4.377743579342269, 50.802090846535968 ], [ 4.377869353032183, 50.801826900806709 ], [ 4.377969598274638, 50.801597387336699 ], [ 4.378046937701592, 50.801550748475584 ], [ 4.378051803774212, 50.801516423005324 ], [ 4.378063383853283, 50.801469870635195 ], [ 4.378116386002364, 50.801325321675392 ], [ 4.37820712749195, 50.801117210175278 ], [ 4.378285032041216, 50.800941406056246 ], [ 4.378395095902899, 50.800662585219541 ], [ 4.378454584992103, 50.800502998792645 ], [ 4.378532599855777, 50.800323720070487 ], [ 4.378639724824312, 50.800067294319746 ], [ 4.378748943561172, 50.799828782151174 ], [ 4.378794080444976, 50.799729699050481 ], [ 4.378881417737809, 50.799536839915618 ], [ 4.378918099327017, 50.799424815479576 ], [ 4.37908451078465, 50.799328435439186 ], [ 4.379122352312946, 50.799320091234527 ], [ 4.379250593215284, 50.799311749891793 ], [ 4.379519736136085, 50.799276040502939 ], [ 4.380170751079536, 50.799188827190335 ], [ 4.380489045038861, 50.799151437658352 ], [ 4.380964084626887, 50.799089709748209 ], [ 4.381481113465641, 50.799021297587203 ], [ 4.381920120304095, 50.798962544218732 ], [ 4.382141205981718, 50.798930420449658 ], [ 4.382622804507473, 50.798862347468742 ], [ 4.382691720909993, 50.798855234525149 ], [ 4.382820678809497, 50.798846231278105 ], [ 4.382974808439992, 50.798826016257642 ], [ 4.38355358006275, 50.798748157292579 ], [ 4.383990878761888, 50.7986869691862 ], [ 4.384087048777116, 50.798677427066671 ], [ 4.384111026440181, 50.79867459651075 ], [ 4.384456960313249, 50.798593592550922 ], [ 4.38456348713077, 50.798590243865235 ], [ 4.38457640857906, 50.798610255997545 ], [ 4.387734912769855, 50.798197683645419 ], [ 4.388422317550717, 50.798109932188503 ], [ 4.388910754492989, 50.798039892102921 ], [ 4.389029193367597, 50.79803321864194 ], [ 4.389234149983041, 50.798007471442986 ], [ 4.389480938107527, 50.797967006171554 ], [ 4.389540085221879, 50.7979608823955 ], [ 4.389567891857054, 50.797971305266621 ], [ 4.389578680942885, 50.797991439231438 ], [ 4.389576383942702, 50.798002492431053 ], [ 4.389474395366945, 50.798481478143117 ], [ 4.389416334389073, 50.798750790861618 ], [ 4.389384636661223, 50.798919352170941 ], [ 4.389349203078801, 50.798982825389849 ], [ 4.389368905790733, 50.799053078413984 ], [ 4.389316722376468, 50.799316918778317 ], [ 4.389182124474811, 50.799975490248684 ], [ 4.389127276327975, 50.800256710551096 ], [ 4.389105504039264, 50.800325026624904 ], [ 4.389061269007742, 50.800415429267268 ], [ 4.389039827083153, 50.800440944674413 ], [ 4.388993883897815, 50.800480138664902 ], [ 4.389033555119386, 50.800573968572358 ], [ 4.388916456233534, 50.800677669461393 ], [ 4.388954451903483, 50.800693529379735 ], [ 4.388680322903842, 50.800931272582126 ], [ 4.3883931727245, 50.801181185408986 ], [ 4.388113340749261, 50.801352959695592 ], [ 4.387851764824553, 50.801514078043041 ], [ 4.387582458430199, 50.801707651608893 ], [ 4.387409939579969, 50.801865942508876 ], [ 4.387555674960625, 50.802016930498418 ], [ 4.387626449319077, 50.802085028575455 ], [ 4.387637662103081, 50.802099320200007 ], [ 4.387642917385634, 50.80211496126217 ], [ 4.38763711596657, 50.802135515543057 ], [ 4.387617688512869, 50.802152868754845 ], [ 4.387598115267159, 50.802160782885871 ], [ 4.387578681972345, 50.802164112283812 ], [ 4.387552574182036, 50.802165318199876 ], [ 4.387514121984274, 50.802164167966716 ], [ 4.387419442361013, 50.80215698295919 ], [ 4.387205090460179, 50.802149484870405 ], [ 4.387123970546812, 50.802150095157998 ], [ 4.386968904882849, 50.802153385714874 ], [ 4.386983774593077, 50.802301703063613 ], [ 4.386846738852009, 50.802425584116179 ], [ 4.386537427349269, 50.802732943422242 ], [ 4.386477187860403, 50.802794965778908 ], [ 4.386397217724157, 50.802929002067273 ], [ 4.386247296552962, 50.803180294256528 ], [ 4.386115960041934, 50.803400443339669 ], [ 4.385987358507582, 50.80361598017064 ], [ 4.385854389154873, 50.80383884404889 ], [ 4.385626386115264, 50.804221018039755 ], [ 4.385468743980456, 50.804485219390138 ], [ 4.385345765163026, 50.804691342492454 ], [ 4.385176609427955, 50.804980787949965 ], [ 4.384897196667518, 50.805443137269506 ], [ 4.3848494012595, 50.805523241575209 ], [ 4.384924478013546, 50.805680575982976 ], [ 4.384913698134585, 50.80568285753295 ], [ 4.384754857616525, 50.805717313842948 ], [ 4.384700783637562, 50.805736370520954 ], [ 4.384672924512262, 50.805747953093459 ], [ 4.38461913603286, 50.805772205688903 ], [ 4.384549859699162, 50.805809000948209 ], [ 4.384505194776448, 50.805837396418042 ], [ 4.384463722532184, 50.805867670252731 ], [ 4.384411798417353, 50.805910976099135 ], [ 4.384365264745241, 50.805949786114738 ], [ 4.384245480458066, 50.806064420263453 ], [ 4.383785761600071, 50.806528454635945 ], [ 4.383654434071046, 50.806667415595037 ], [ 4.38356806914958, 50.806756049665367 ], [ 4.383503252719753, 50.806834309736018 ], [ 4.38344986804525, 50.80688426302752 ], [ 4.383213276548572, 50.807136910857032 ], [ 4.382990437637631, 50.807368376923762 ], [ 4.382504932263043, 50.807869018107802 ], [ 4.38218207924534, 50.808201169474913 ], [ 4.381979498292378, 50.808411424630542 ], [ 4.381746931469302, 50.808652759994047 ], [ 4.381539320164434, 50.808865453973851 ], [ 4.381442972260469, 50.808928835846018 ], [ 4.380939840201928, 50.809270715949644 ], [ 4.380581395707679, 50.809515376832231 ], [ 4.380259133091805, 50.809733987051501 ], [ 4.38009785563846, 50.809843218402875 ], [ 4.37949596303635, 50.810250597518923 ], [ 4.379039609759769, 50.810555901025019 ], [ 4.378940441941761, 50.810623032578661 ], [ 4.378844671576833, 50.81069212650597 ], [ 4.37874801424072, 50.810765367678677 ], [ 4.378685425445113, 50.810813278946114 ], [ 4.378596175465955, 50.810885362573835 ], [ 4.378503506082095, 50.810955128441613 ], [ 4.378461624117699, 50.811006671255797 ], [ 4.378371212362528, 50.811097468244355 ], [ 4.378311769626287, 50.811160334685496 ], [ 4.378259571704114, 50.81122407331042 ], [ 4.378222449277472, 50.811269421212302 ], [ 4.378177128465161, 50.811332937689592 ], [ 4.378147066094338, 50.811379647078724 ], [ 4.378034214912542, 50.811575390412301 ], [ 4.378005430434044, 50.811634097970739 ], [ 4.377966998898485, 50.811729004408221 ], [ 4.377906253191401, 50.811912741875453 ], [ 4.377853345816245, 50.812069537185657 ], [ 4.377766199008081, 50.812330479778467 ], [ 4.377717767538834, 50.812493416564855 ], [ 4.377652636035616, 50.812697568066966 ], [ 4.377616355769447, 50.812801880071582 ], [ 4.37758769190104, 50.8128824410147 ], [ 4.37744887722792, 50.813271757763985 ], [ 4.377429108284977, 50.813327182996346 ], [ 4.377413912897948, 50.813369834186531 ], [ 4.377501967419456, 50.813451652593656 ], [ 4.377514926783346, 50.813477607966618 ], [ 4.377532541265612, 50.813575683007919 ], [ 4.377533960459743, 50.813607988452603 ], [ 4.377531139548049, 50.81362174275796 ], [ 4.377032509019369, 50.814290585502107 ], [ 4.376655474511107, 50.814799896212378 ], [ 4.376624961769896, 50.814832370544117 ], [ 4.376481930328078, 50.815014957777862 ], [ 4.376451613997308, 50.815055386136279 ], [ 4.376446984229081, 50.815057075971005 ], [ 4.376446495301468, 50.815063659837591 ], [ 4.376446921110674, 50.815067573128296 ], [ 4.376445367153429, 50.815078851236933 ], [ 4.376443099538187, 50.815085612613231 ], [ 4.376416558413436, 50.815120380864293 ], [ 4.3763888863467, 50.815156655269192 ], [ 4.37637738448754, 50.815165040486882 ], [ 4.376358010600116, 50.815173291264124 ], [ 4.376358855060756, 50.815176809972343 ], [ 4.376358819485587, 50.815182917996275 ], [ 4.376358112070387, 50.815185436192117 ], [ 4.376341187656228, 50.815208414778873 ], [ 4.37631299408122, 50.815217867989347 ], [ 4.376280813911371, 50.815227773064613 ], [ 4.376248049705064, 50.81522741633097 ], [ 4.375482224085169, 50.815101292461556 ], [ 4.375356421556816, 50.815080757329142 ], [ 4.374976593315146, 50.815018755874767 ], [ 4.374587620545745, 50.814955379225559 ], [ 4.373271031538004, 50.814747208258837 ], [ 4.373204069135801, 50.814736625954389 ], [ 4.373063256747197, 50.814714357728789 ], [ 4.372839098496095, 50.814680920874153 ], [ 4.372761120226047, 50.814668239102105 ], [ 4.372310967048181, 50.814595008673749 ], [ 4.372139396210674, 50.814569377487096 ], [ 4.371950530489411, 50.814549247219801 ], [ 4.371851882802559, 50.814532134269065 ], [ 4.371793605211023, 50.814522022848621 ], [ 4.371672934738603, 50.814496900720478 ], [ 4.371672934738603, 50.814496900720478 ] ] ] ] } },
{ "type": "Feature", "properties": { "fid": 296, "gid": 296, "pgs_id": 10200, "name_f": "Hippodrome de Boitsfort", "name_n": "Hippodroom van Bosvoorde", "code": null, "surface": 242504.828, "type_f": "Espace vert", "type_n": "Groene ruimte", "subtype_f": "parcs et squares", "subtype_n": "parken en pleinen", "green_manager_f": "Bruxelles Environnement", "green_manager_n": "Leefmilieu Brussel", "green_owner_f": "Commune", "green_owner_n": "Gemeente", "municipality_f": "Uccle", "municipality_n": "Ukkel", "management_plan": "false", "security": "false", "accessibility_by_law": "true", "opening_times": "false", "potentiel": "false", "permeability_above_30perc": "true", "temporary": "false", "on_roof": "false" }, "geometry": { "type": "MultiPolygon", "coordinates": [ [ [ [ 4.393445059582768, 50.797256015575108 ], [ 4.393721877355904, 50.797220284416021 ], [ 4.394980959738439, 50.797053010486692 ], [ 4.395061208703964, 50.79704234829633 ], [ 4.395758640940036, 50.796949043916825 ], [ 4.396203142184183, 50.796889723282689 ], [ 4.396746553722855, 50.796814303322186 ], [ 4.396733525284168, 50.796779094115777 ], [ 4.396913365854998, 50.796752980030575 ], [ 4.396960792322172, 50.796743673060938 ], [ 4.397119998260348, 50.796700609296373 ], [ 4.397423105081914, 50.796660907423622 ], [ 4.397466846158345, 50.796655178507343 ], [ 4.397470509249894, 50.796548129562964 ], [ 4.39739958351459, 50.796540560092723 ], [ 4.39748739991464, 50.796271550221626 ], [ 4.397496035359242, 50.796244579147405 ], [ 4.397505548976536, 50.796215639121591 ], [ 4.397557636166983, 50.796220687184857 ], [ 4.397684848126246, 50.79623484073452 ], [ 4.397943274341085, 50.79624418725831 ], [ 4.398003780892278, 50.796239676993522 ], [ 4.398083784010156, 50.796247099938689 ], [ 4.398190829959787, 50.796244681217431 ], [ 4.398299873426081, 50.796238477246433 ], [ 4.398494896093921, 50.79622479846492 ], [ 4.398591294330703, 50.796207639141251 ], [ 4.398689451868828, 50.79619131531436 ], [ 4.398789397549424, 50.79617654614308 ], [ 4.398936995233378, 50.796151920688061 ], [ 4.399023405263373, 50.796131257682298 ], [ 4.399050443657995, 50.796115096159141 ], [ 4.399136855048577, 50.796096671488385 ], [ 4.39921484983296, 50.796070104382196 ], [ 4.399294402811869, 50.796040579218378 ], [ 4.399353339205002, 50.796021748185169 ], [ 4.399372393772031, 50.796008537319743 ], [ 4.399464570622111, 50.795979440168082 ], [ 4.399542556283841, 50.795939801914706 ], [ 4.399613458670845, 50.795913380281576 ], [ 4.399675035199107, 50.795876703947322 ], [ 4.399738399757721, 50.795841429480156 ], [ 4.399810402360537, 50.795806296472129 ], [ 4.399871994389355, 50.795772002282675 ], [ 4.399927158908296, 50.795734626363547 ], [ 4.399986077889465, 50.795691064525165 ], [ 4.40004212019112, 50.795651575747293 ], [ 4.400090192382314, 50.795614066841281 ], [ 4.400148884787199, 50.795571484851934 ], [ 4.400199161052314, 50.795521605556381 ], [ 4.400254088563053, 50.795470322577238 ], [ 4.400278877268875, 50.795421996464114 ], [ 4.400311856197525, 50.795362008531399 ], [ 4.400339086045514, 50.795316072975687 ], [ 4.400355234425025, 50.795264521944581 ], [ 4.400367382839263, 50.795212828179359 ], [ 4.400382430694588, 50.795169835581696 ], [ 4.40040079560409, 50.795124046288684 ], [ 4.400402541450251, 50.795084572306777 ], [ 4.400405389764563, 50.795039479496303 ], [ 4.400413999085077, 50.794997900043072 ], [ 4.400417280032982, 50.794942558924191 ], [ 4.400421022095681, 50.794897753533256 ], [ 4.400416107267613, 50.794845920635339 ], [ 4.400416296063257, 50.794790436533937 ], [ 4.400420925227738, 50.794756867944663 ], [ 4.400408686047107, 50.794676243253953 ], [ 4.400395785395374, 50.794623711364927 ], [ 4.400371383800445, 50.794573996403031 ], [ 4.400318163030303, 50.794526959296391 ], [ 4.400291325501527, 50.794503081210713 ], [ 4.400262700069777, 50.794457304848621 ], [ 4.400377089495136, 50.794497025529296 ], [ 4.400627801925227, 50.794583894918347 ], [ 4.400755774763026, 50.794412076258396 ], [ 4.399743858626205, 50.794068644379358 ], [ 4.398605838955763, 50.793703454776754 ], [ 4.39803617523882, 50.793519314262241 ], [ 4.395077077000351, 50.792562924713096 ], [ 4.393483215544133, 50.792056490216154 ], [ 4.39266953941955, 50.79177362497623 ], [ 4.392600839852589, 50.791749762887953 ], [ 4.392262613370342, 50.791647018668492 ], [ 4.391992877830118, 50.791574590564458 ], [ 4.391814026585037, 50.791531926144145 ], [ 4.391759291910288, 50.791524637635987 ], [ 4.391674842551394, 50.791513417630284 ], [ 4.39153412871357, 50.791498550064084 ], [ 4.391317178136882, 50.791502386960801 ], [ 4.391041736579908, 50.791532080175422 ], [ 4.39077782539619, 50.791591544213659 ], [ 4.390508185554, 50.79168458508012 ], [ 4.39034999986916, 50.791762573476944 ], [ 4.39027397452925, 50.791805822086367 ], [ 4.390192930285715, 50.791862613056075 ], [ 4.390080263982576, 50.791957385142823 ], [ 4.390010510345206, 50.792012783433123 ], [ 4.389916623116755, 50.792111192644974 ], [ 4.389858314262153, 50.792205885363714 ], [ 4.389825807509915, 50.79225867567601 ], [ 4.389775996170329, 50.792348824079362 ], [ 4.389754540485814, 50.792417095409313 ], [ 4.389726567392922, 50.792500191861762 ], [ 4.389709339557732, 50.792571626753308 ], [ 4.389689309602298, 50.792697512579693 ], [ 4.389729152881066, 50.792940611984406 ], [ 4.389810132386975, 50.793142306573692 ], [ 4.389740097501422, 50.793115071948264 ], [ 4.389581915569017, 50.793245585763422 ], [ 4.389842579434082, 50.793348073447049 ], [ 4.390731873365882, 50.793711571689357 ], [ 4.391874094781125, 50.794175992639687 ], [ 4.394651148344819, 50.795301347522368 ], [ 4.394492325529889, 50.795466568037888 ], [ 4.394453471447902, 50.7954484271513 ], [ 4.394470964780112, 50.795466869512687 ], [ 4.394487719419859, 50.795498329463435 ], [ 4.394496530343756, 50.795528442758624 ], [ 4.394492296783253, 50.795566919358272 ], [ 4.394478701578197, 50.795604948586735 ], [ 4.394336575057452, 50.795852465229004 ], [ 4.394314328956686, 50.795893283162272 ], [ 4.394278914718129, 50.795975456361973 ], [ 4.394247756722375, 50.79605969621413 ], [ 4.394151970443718, 50.796236363913657 ], [ 4.394113283410429, 50.796300648411361 ], [ 4.394036752981607, 50.79641636200072 ], [ 4.393946334370797, 50.796555181965452 ], [ 4.393862866443147, 50.796695708355294 ], [ 4.3937827916338, 50.79681681632708 ], [ 4.393678193834901, 50.796967865082962 ], [ 4.393563521341783, 50.797113162567534 ], [ 4.393477898567729, 50.797207302627015 ], [ 4.393445059582768, 50.797256015575108 ] ] ] ] } },
{ "type": "Feature", "properties": { "fid": 321, "gid": 321, "pgs_id": 12642, "name_f": "Forêt de Soignes", "name_n": "Zoniënwoud", "code": "son", "surface": 16087539.0, "type_f": "Espace vert", "type_n": "Groene ruimte", "subtype_f": "bois", "subtype_n": "bos", "green_manager_f": "Bruxelles Environnement", "green_manager_n": "Leefmilieu Brussel", "green_owner_f": "Commune", "green_owner_n": "Gemeente", "municipality_f": "Auderghem; Woluwe-Saint-Pierre; Uccle; Watermael-Boitsfort", "municipality_n": "Oudergem; Sint-Pieters-Woluwe; Ukkel; Watermaal-Bosvoorde", "management_plan": "true", "security": "false", "accessibility_by_law": "true", "opening_times": "false", "potentiel": "false", "permeability_above_30perc": "true", "temporary": "false", "on_roof": "false" }, "geometry": { "type": "MultiPolygon", "coordinates": [ [ [ [ 4.425611158704704, 50.7853019604824 ], [ 4.425731221267188, 50.785328887482386 ], [ 4.425871561043762, 50.785307053556778 ], [ 4.425904985965013, 50.785305801758945 ], [ 4.425966241535384, 50.785301276662004 ], [ 4.426012319092559, 50.785293073281515 ], [ 4.426059523344623, 50.785278576561062 ], [ 4.426104867104092, 50.78525032655935 ], [ 4.42631884677461, 50.785128769983025 ], [ 4.426330892071801, 50.785122021744193 ], [ 4.426342937365539, 50.785115273504118 ], [ 4.426847842589908, 50.78483076803073 ], [ 4.426968999655325, 50.784760677679429 ], [ 4.427109433664669, 50.784683925133606 ], [ 4.427202266482682, 50.784643874292271 ], [ 4.427239250413712, 50.784622010728512 ], [ 4.427269856546833, 50.784602937172977 ], [ 4.427330492912931, 50.784557958183967 ], [ 4.427435640054981, 50.784500191284977 ], [ 4.427470491007893, 50.784473833896101 ], [ 4.427543161168874, 50.784413566260824 ], [ 4.427705056016033, 50.78426452518466 ], [ 4.427782806917132, 50.784185646202396 ], [ 4.427939708598899, 50.784014223070137 ], [ 4.428128735140681, 50.783793070394523 ], [ 4.428302905462403, 50.783599163732781 ], [ 4.428464888111951, 50.783412095234603 ], [ 4.428619795226227, 50.78323734600599 ], [ 4.428863228725454, 50.782958820334684 ], [ 4.429383678252203, 50.782363332550176 ], [ 4.429678186936481, 50.782031818741757 ], [ 4.430386105274533, 50.781221115180351 ], [ 4.431682934769989, 50.779725794643952 ], [ 4.432878595292831, 50.778349160955365 ], [ 4.432892035731776, 50.778327847975618 ], [ 4.432954630909383, 50.778255221618714 ], [ 4.432990667229679, 50.778189477314513 ], [ 4.433036929614564, 50.778104845760751 ], [ 4.433017633997362, 50.778093794995669 ], [ 4.432633494776197, 50.777961499536922 ], [ 4.432202097492408, 50.777821194224309 ], [ 4.431335715365593, 50.777530972902447 ], [ 4.430846048450424, 50.77736160114906 ], [ 4.430472565879498, 50.777240577608801 ], [ 4.430459858638089, 50.777256259688073 ], [ 4.430061870229665, 50.777137168994052 ], [ 4.430049910430555, 50.777174590381314 ], [ 4.429921413831218, 50.777155078797513 ], [ 4.42942893319224, 50.777506295059304 ], [ 4.429071003338731, 50.77768569135457 ], [ 4.42880109455115, 50.777900523196159 ], [ 4.428144864681781, 50.778243161732163 ], [ 4.427839000512373, 50.778431867776476 ], [ 4.426954374986045, 50.778987869073525 ], [ 4.426435052462005, 50.779292141962152 ], [ 4.425975701772213, 50.779516509609365 ], [ 4.425646406433589, 50.779759528071374 ], [ 4.425604159455914, 50.779834275386669 ], [ 4.425383034371488, 50.77984370818978 ], [ 4.42514153405978, 50.779677263866191 ], [ 4.425146429435556, 50.779419729513613 ], [ 4.425916548473999, 50.778924097794601 ], [ 4.427040646139186, 50.778335835810523 ], [ 4.429404434336121, 50.776874121169747 ], [ 4.426644290504901, 50.77595043040251 ], [ 4.42543865951461, 50.775552909121792 ], [ 4.425271811871032, 50.775504311603754 ], [ 4.424561842075142, 50.775316142583613 ], [ 4.423912492508339, 50.775153471443396 ], [ 4.422975881164503, 50.774924766906643 ], [ 4.422736451564169, 50.774865387977407 ], [ 4.422548220554568, 50.774813461829936 ], [ 4.421645962683536, 50.774586967863243 ], [ 4.420221238069897, 50.774231213313236 ], [ 4.418813320589244, 50.773881413902487 ], [ 4.418681998119474, 50.77384424444201 ], [ 4.415961987780131, 50.77316363645636 ], [ 4.41492461842338, 50.772894798096374 ], [ 4.412990697384813, 50.772422158934639 ], [ 4.412609401763953, 50.772326999853689 ], [ 4.411083567050332, 50.771934542395435 ], [ 4.40738115285212, 50.770796330821952 ], [ 4.404109478196357, 50.769814513465214 ], [ 4.400682118607246, 50.768814108902916 ], [ 4.397422571507299, 50.767863244387179 ], [ 4.396703691558783, 50.767651360414035 ], [ 4.396549023179782, 50.767607034696951 ], [ 4.393571186612803, 50.766745458840582 ], [ 4.390934372206589, 50.76599081438156 ], [ 4.38838388141318, 50.765255958332666 ], [ 4.386283145663049, 50.764654191217261 ], [ 4.384724699351421, 50.764207008141739 ], [ 4.383188426147669, 50.763772540082613 ], [ 4.383163761574238, 50.763768677691161 ], [ 4.383155679873323, 50.763761397068414 ], [ 4.38313441507515, 50.763751061641514 ], [ 4.383096283189515, 50.763741807142843 ], [ 4.383064104475088, 50.763732372074905 ], [ 4.383047519836818, 50.763730216668293 ], [ 4.383040291020848, 50.763730487284505 ], [ 4.383025550216482, 50.763732017419898 ], [ 4.383020055332008, 50.763746976998945 ], [ 4.383006997920167, 50.763782631854745 ], [ 4.382990031971238, 50.763829650199959 ], [ 4.382960830061253, 50.763910561304023 ], [ 4.382939284913652, 50.763973374458779 ], [ 4.382924435741333, 50.764017723262867 ], [ 4.382895549658068, 50.764112028972903 ], [ 4.382873321412826, 50.764193478548179 ], [ 4.382843736919027, 50.764321315941984 ], [ 4.382822511154203, 50.764436117194009 ], [ 4.382814731072682, 50.764486910025077 ], [ 4.38280780144799, 50.764537702747866 ], [ 4.382797764230478, 50.764623106235511 ], [ 4.382786750127529, 50.76475768354306 ], [ 4.382781972506013, 50.764891271193392 ], [ 4.382781064114511, 50.765159524158058 ], [ 4.382781668050919, 50.765277738720606 ], [ 4.382779902961293, 50.765464744784417 ], [ 4.382776706012523, 50.765728662982205 ], [ 4.382776872759502, 50.765808671336593 ], [ 4.382776554976992, 50.76588041821153 ], [ 4.382775283851322, 50.766167450646762 ], [ 4.382769827925158, 50.766853006114246 ], [ 4.382768869007677, 50.766959803900477 ], [ 4.382765878638009, 50.767279594946089 ], [ 4.382765302432666, 50.767340967711199 ], [ 4.382765099927793, 50.767373402579551 ], [ 4.38276314002218, 50.76767943023038 ], [ 4.382763484729828, 50.767918881592983 ], [ 4.382763683041553, 50.76805663798757 ], [ 4.382763283675033, 50.768139612966785 ], [ 4.382762260071607, 50.768493447659608 ], [ 4.382777187699769, 50.768631347763368 ], [ 4.382777149751017, 50.768646000976766 ], [ 4.38277733996339, 50.768664969216765 ], [ 4.382778388786339, 50.768755099801091 ], [ 4.382779015436219, 50.768809784056721 ], [ 4.382787500232102, 50.768924887083777 ], [ 4.382801555087245, 50.769036420495951 ], [ 4.382811211996247, 50.769091616023267 ], [ 4.382828258263446, 50.769203715401666 ], [ 4.382840608730952, 50.76925909037849 ], [ 4.382848746811814, 50.769290074400921 ], [ 4.382862086729578, 50.769331295951346 ], [ 4.382877075562603, 50.769368939868308 ], [ 4.382896781274169, 50.769407871103461 ], [ 4.382917404336041, 50.769441545861987 ], [ 4.3829427439442, 50.769474740273154 ], [ 4.382972456165495, 50.769507087121696 ], [ 4.383012537726031, 50.769546718644236 ], [ 4.383054742949922, 50.769584138981841 ], [ 4.383088954182305, 50.769611326153999 ], [ 4.383138445053886, 50.769646153634447 ], [ 4.383166843190545, 50.769664832586422 ], [ 4.383025068696237, 50.769801046768549 ], [ 4.38294709055508, 50.769771489596238 ], [ 4.382924123002247, 50.769764480550478 ], [ 4.38288258359229, 50.769753877973692 ], [ 4.382855080656716, 50.769749925984925 ], [ 4.382830272204997, 50.7697492099405 ], [ 4.382808158428943, 50.769752359120801 ], [ 4.382787321738545, 50.76975946360259 ], [ 4.382769746844252, 50.769770702931211 ], [ 4.382761103189665, 50.769782840106025 ], [ 4.382756005052983, 50.769799741374186 ], [ 4.38275382235389, 50.770073747569889 ], [ 4.382753274711991, 50.770135956329462 ], [ 4.382747822482896, 50.770381285786137 ], [ 4.382749603466062, 50.770637222159216 ], [ 4.382748157636782, 50.770744933022925 ], [ 4.382745170001167, 50.770967504058774 ], [ 4.382745964042162, 50.771240790624248 ], [ 4.382741789787707, 50.771493311605063 ], [ 4.382737907736306, 50.771773790473205 ], [ 4.382739138569354, 50.772084024556783 ], [ 4.382738652245035, 50.772343107494763 ], [ 4.382734946973461, 50.772736227087108 ], [ 4.382735091571321, 50.773200274797617 ], [ 4.382730262492958, 50.773627015874723 ], [ 4.382731896156615, 50.773865062578579 ], [ 4.38272887936658, 50.774193276400524 ], [ 4.382728117897174, 50.774479597979706 ], [ 4.382727178888526, 50.774651121286979 ], [ 4.382721557496038, 50.774810598995792 ], [ 4.382722488400255, 50.775068333123428 ], [ 4.382717378285037, 50.775504153611188 ], [ 4.38271573302656, 50.775684369984695 ], [ 4.382715321853352, 50.775729884797983 ], [ 4.38272588690276, 50.77573788429293 ], [ 4.382736451955761, 50.775745883786882 ], [ 4.382737165685564, 50.775761390899369 ], [ 4.38273787941584, 50.775776898011806 ], [ 4.382727672626134, 50.775781169389354 ], [ 4.382717465834577, 50.77578544076605 ], [ 4.382715427453176, 50.775841419771695 ], [ 4.382714654303624, 50.775862752383887 ], [ 4.382714005772272, 50.776056749798016 ], [ 4.382713240328848, 50.776148426665294 ], [ 4.382712775544537, 50.776203929015708 ], [ 4.382712324934423, 50.776259422373911 ], [ 4.382711819098816, 50.776319698248479 ], [ 4.382707797681284, 50.776609795745216 ], [ 4.382703918779775, 50.776902410312722 ], [ 4.382702591154194, 50.777192507429163 ], [ 4.38270466650986, 50.777483143479344 ], [ 4.382697392853294, 50.777802098160791 ], [ 4.382690108512949, 50.778086981941719 ], [ 4.382686381513475, 50.778139014656588 ], [ 4.382674861733609, 50.77830012907809 ], [ 4.382661530678386, 50.778427397587173 ], [ 4.382652949569425, 50.778509321573914 ], [ 4.382648286144372, 50.778559574442788 ], [ 4.38262918611923, 50.778693163399851 ], [ 4.382606396676665, 50.77881767323548 ], [ 4.38256306191607, 50.778988302640094 ], [ 4.38253416512205, 50.779080000896009 ], [ 4.382490527379773, 50.779188961134217 ], [ 4.382441786641253, 50.779303315784112 ], [ 4.382423506445047, 50.779338467652387 ], [ 4.382404475141133, 50.779374959070879 ], [ 4.382386804207713, 50.779408861293511 ], [ 4.382356477715481, 50.779463702008449 ], [ 4.382325158590398, 50.779518452938916 ], [ 4.382292846747664, 50.779572844393883 ], [ 4.382261526174592, 50.779623280262747 ], [ 4.382229057147607, 50.779674120796784 ], [ 4.382196899559602, 50.779723522935853 ], [ 4.382136665629998, 50.779815134956976 ], [ 4.382105626863935, 50.779860716323803 ], [ 4.382074587502664, 50.779904499747396 ], [ 4.38204269730494, 50.779948193367105 ], [ 4.382003578151382, 50.780000338130392 ], [ 4.381946740995546, 50.780073251124563 ], [ 4.381710601175578, 50.780370926916255 ], [ 4.381503090244226, 50.780631651379437 ], [ 4.381453054275867, 50.780692607079175 ], [ 4.381415492671108, 50.780741515176373 ], [ 4.381260849096285, 50.780934540929628 ], [ 4.381225426767459, 50.780978306630345 ], [ 4.381114396679374, 50.78111545647122 ], [ 4.381082106690664, 50.781155347229806 ], [ 4.380953826166372, 50.78131798454109 ], [ 4.380839577131564, 50.78146039341987 ], [ 4.380829050933117, 50.781474924542707 ], [ 4.380829050408667, 50.781474925270942 ], [ 4.380886101314966, 50.781515135419745 ], [ 4.380999169364562, 50.781564332433817 ], [ 4.382878244829767, 50.782096891501652 ], [ 4.382977087679767, 50.782126275170469 ], [ 4.383027430427639, 50.782139663354037 ], [ 4.383123151099729, 50.782160327320689 ], [ 4.387246040471694, 50.783432391667283 ], [ 4.387512787606515, 50.783472621373896 ], [ 4.387510954720073, 50.783498152325485 ], [ 4.387517592242254, 50.783535260558068 ], [ 4.387478498365503, 50.783538071820139 ], [ 4.38747269683028, 50.783568098260645 ], [ 4.387424540746279, 50.783706457162303 ], [ 4.387111551766851, 50.784686022146474 ], [ 4.386867097836871, 50.785446317262021 ], [ 4.386694647000895, 50.785990219207591 ], [ 4.386646009922568, 50.786143590507677 ], [ 4.386640628532509, 50.786162379747125 ], [ 4.386635247138153, 50.786181168986211 ], [ 4.386614895484387, 50.78624854969911 ], [ 4.386547296950368, 50.786472268020361 ], [ 4.386415574076619, 50.786887700785059 ], [ 4.386305328931862, 50.787217584450055 ], [ 4.386282990754942, 50.78728443500669 ], [ 4.386276623695286, 50.787322102653846 ], [ 4.386225343905632, 50.787469720757429 ], [ 4.386146882057954, 50.787739062957336 ], [ 4.3860621728988, 50.787991415599798 ], [ 4.385976902440223, 50.788261837453476 ], [ 4.385885253180565, 50.78854277809026 ], [ 4.38569656139615, 50.789140276897314 ], [ 4.385657196304374, 50.789264951298499 ], [ 4.385647561406105, 50.789288685423784 ], [ 4.385395848761056, 50.790108129534339 ], [ 4.385360271698914, 50.790225812398269 ], [ 4.385327006494053, 50.790335847503044 ], [ 4.385276437024249, 50.790503871471216 ], [ 4.385126700661141, 50.790976658941787 ], [ 4.385088161952423, 50.79108103434907 ], [ 4.385016211005997, 50.791348756454148 ], [ 4.384951179063317, 50.791533682863218 ], [ 4.384935452357761, 50.791578543460965 ], [ 4.384697435573034, 50.791490838557806 ], [ 4.384618713838011, 50.791468465491278 ], [ 4.384250917263133, 50.791352460562244 ], [ 4.383962415692136, 50.791273301289962 ], [ 4.383662278903799, 50.79117463532274 ], [ 4.383090659119166, 50.790981432639612 ], [ 4.382933926320252, 50.790931110617137 ], [ 4.382767835460752, 50.790887352001782 ], [ 4.382635074022874, 50.79084448797407 ], [ 4.382502312854395, 50.790801713691906 ], [ 4.382212821505082, 50.79071149295568 ], [ 4.381987159529902, 50.790646255153355 ], [ 4.381979076000461, 50.790647784354007 ], [ 4.381962907055084, 50.790644460103955 ], [ 4.381934398027384, 50.790636462696689 ], [ 4.38191666899646, 50.790633048728488 ], [ 4.381901919042474, 50.790632241403571 ], [ 4.381890573714634, 50.790634310362222 ], [ 4.381750156100217, 50.790594233023249 ], [ 4.381722920685693, 50.790576346802993 ], [ 4.381698806669274, 50.790562775244034 ], [ 4.381671431235952, 50.790551001988547 ], [ 4.381076711878747, 50.790364624262253 ], [ 4.381039409453606, 50.790354200408082 ], [ 4.381005653517941, 50.790347012423666 ], [ 4.380990619578126, 50.790344586878589 ], [ 4.38097558605912, 50.790343689571785 ], [ 4.380961403948666, 50.790344500202487 ], [ 4.380947363980959, 50.790346479470145 ], [ 4.380934175296248, 50.79034971719333 ], [ 4.380922688809214, 50.790354123382507 ], [ 4.380912195378085, 50.790359608219411 ], [ 4.380903120374563, 50.790365812071776 ], [ 4.380895747641689, 50.790373454080701 ], [ 4.380877744071858, 50.790402852201311 ], [ 4.38085152247862, 50.790460838297392 ], [ 4.380841178502424, 50.790494550606326 ], [ 4.380817809151019, 50.790611058989555 ], [ 4.380778009390907, 50.790806588149472 ], [ 4.380751094634646, 50.790925074616986 ], [ 4.380709364257676, 50.791091372151001 ], [ 4.380243132799085, 50.793332105759106 ], [ 4.380227009654504, 50.793399331971671 ], [ 4.38021763044461, 50.793438455863388 ], [ 4.380213170697256, 50.793469371701605 ], [ 4.380194143386356, 50.793550172566071 ], [ 4.38018093897907, 50.793606206363542 ], [ 4.380161804698833, 50.793657539189198 ], [ 4.380109376558129, 50.793853608647836 ], [ 4.380093932519271, 50.79391563875118 ], [ 4.380056098187749, 50.794054442669001 ], [ 4.380015590504137, 50.794278828207716 ], [ 4.37996856087291, 50.794514631223173 ], [ 4.379958220435473, 50.794568372332478 ], [ 4.379949438115776, 50.794613968669715 ], [ 4.379933289672283, 50.794696764875098 ], [ 4.379915708134642, 50.794777628449289 ], [ 4.379900225435964, 50.79485735012311 ], [ 4.379930196353344, 50.794860421547256 ], [ 4.379909369474702, 50.794952396637711 ], [ 4.379878802975696, 50.794950089387534 ], [ 4.379855857447237, 50.795055096939215 ], [ 4.379771072610974, 50.795443100883297 ], [ 4.379766964184967, 50.795462788597398 ], [ 4.379752796632624, 50.795528504252829 ], [ 4.379728849515502, 50.795623976574738 ], [ 4.379709015936572, 50.795720617133142 ], [ 4.379683937932154, 50.795832360793653 ], [ 4.379662544729126, 50.795932237762287 ], [ 4.379633927296591, 50.796071669831797 ], [ 4.379603037549105, 50.796200134758877 ], [ 4.379551140661062, 50.796439944880646 ], [ 4.379550898880915, 50.796441062082152 ], [ 4.379441094884711, 50.796951144597251 ], [ 4.379411204265855, 50.797109994304755 ], [ 4.379382866919983, 50.797240526506826 ], [ 4.379338092275836, 50.797441269304421 ], [ 4.379295160058748, 50.797637067600526 ], [ 4.37925222545387, 50.797824325721841 ], [ 4.379195117602403, 50.798061207924597 ], [ 4.379124336824938, 50.798365792276542 ], [ 4.379152394891645, 50.798368468533916 ], [ 4.37911733946705, 50.798528747946918 ], [ 4.379089210467029, 50.798526431273068 ], [ 4.379065392964976, 50.798642534569971 ], [ 4.379093522033227, 50.798644851249485 ], [ 4.37907056760568, 50.798751749082918 ], [ 4.379042452632262, 50.798749315531488 ], [ 4.37901281000332, 50.798887318091055 ], [ 4.379040939229986, 50.798889697710401 ], [ 4.379018410118042, 50.798996622455768 ], [ 4.378990280828596, 50.798994242831064 ], [ 4.378968403347719, 50.799098093050411 ], [ 4.378952105504323, 50.799162370403977 ], [ 4.378967290678314, 50.799164512649369 ], [ 4.378969710635744, 50.799193024789879 ], [ 4.378973192494025, 50.799203951241104 ], [ 4.378975732885626, 50.799207007253138 ], [ 4.378980046143687, 50.799209617421177 ], [ 4.37898803401728, 50.7992101044808 ], [ 4.379007247334799, 50.799209242164665 ], [ 4.379007540913989, 50.799212136042151 ], [ 4.379083950111962, 50.799202110209961 ], [ 4.379426365257953, 50.799157336125951 ], [ 4.381722033512465, 50.79885727791391 ], [ 4.382101904711973, 50.798808446300676 ], [ 4.382236343834688, 50.798791161038871 ], [ 4.382930674752318, 50.798686471671815 ], [ 4.383541022883646, 50.798607913173086 ], [ 4.384067951842472, 50.798540150472704 ], [ 4.384170730400053, 50.798526930622799 ], [ 4.384280771062286, 50.798512397191871 ], [ 4.384321153316564, 50.798507024786709 ], [ 4.384354358385841, 50.798502601771624 ], [ 4.384387563448875, 50.798498178747167 ], [ 4.384423761360055, 50.798493364246539 ], [ 4.384426286136702, 50.79849303127768 ], [ 4.384779584156883, 50.798446019580226 ], [ 4.385197688538681, 50.798390484178029 ], [ 4.385940804316941, 50.798290786028375 ], [ 4.386234590197441, 50.798251613261797 ], [ 4.386679094647151, 50.798192342477329 ], [ 4.387165006232826, 50.798123835199675 ], [ 4.388118084388196, 50.798002488033873 ], [ 4.388395232390733, 50.79796719961108 ], [ 4.389187858433823, 50.797857892504652 ], [ 4.389480359442364, 50.797817553664331 ], [ 4.38968847138538, 50.797788854389523 ], [ 4.389724429643329, 50.797783895512076 ], [ 4.389760387907884, 50.797778936623551 ], [ 4.389813392281891, 50.797771627215269 ], [ 4.390137957104964, 50.797727436413439 ], [ 4.390602868233074, 50.797664123819047 ], [ 4.390797042180353, 50.797638465853233 ], [ 4.391022533328332, 50.797608675191697 ], [ 4.391248024186377, 50.79757887510636 ], [ 4.39154386526573, 50.797539783208833 ], [ 4.392597532471972, 50.797376261648097 ], [ 4.392605659506063, 50.797375001397462 ], [ 4.392613786539719, 50.797373741146245 ], [ 4.392699478729349, 50.797360439871198 ], [ 4.393035164712058, 50.797039682753564 ], [ 4.393125624461586, 50.795710738596426 ], [ 4.390405891574197, 50.794839645968089 ], [ 4.390731873365879, 50.793711571680362 ], [ 4.389842579434077, 50.793348073438061 ], [ 4.389581915569013, 50.793245585754434 ], [ 4.389492386461821, 50.793211212191451 ], [ 4.389538880938549, 50.793146249118429 ], [ 4.389579503598341, 50.793088663006941 ], [ 4.389583414615112, 50.793080931196293 ], [ 4.389617140008379, 50.793014284778074 ], [ 4.389622425545516, 50.793003864810032 ], [ 4.3896400426321, 50.792945554745742 ], [ 4.389662251227229, 50.792848120906513 ], [ 4.389678721731742, 50.792764055718521 ], [ 4.389689309602298, 50.792697512579693 ], [ 4.389709339557732, 50.792571626753308 ], [ 4.389726567392922, 50.792500191861762 ], [ 4.389754540485814, 50.792417095409313 ], [ 4.389775996170329, 50.792348824079362 ], [ 4.389825807509915, 50.79225867567601 ], [ 4.389858314262153, 50.792205885363714 ], [ 4.389916623116755, 50.792111192644974 ], [ 4.390010510345206, 50.792012783433123 ], [ 4.390080263982576, 50.791957385142823 ], [ 4.390192930285715, 50.791862613056075 ], [ 4.39027397452925, 50.791805822086367 ], [ 4.39034999986916, 50.791762573476944 ], [ 4.390508185553998, 50.791684585071124 ], [ 4.390777825396185, 50.791591544204678 ], [ 4.391041736579904, 50.791532080166427 ], [ 4.391317178136878, 50.791502386951834 ], [ 4.391534128713565, 50.791498550055088 ], [ 4.391604838037123, 50.791506021095536 ], [ 4.391674842551389, 50.791513417621282 ], [ 4.391759291910283, 50.791524637626992 ], [ 4.391814026585034, 50.791531926135157 ], [ 4.391992877830113, 50.791574590555484 ], [ 4.392262613370336, 50.791647018659511 ], [ 4.392600839852584, 50.791749762878965 ], [ 4.392669539419543, 50.791773624967234 ], [ 4.393083417905848, 50.791917506246087 ], [ 4.393483215544128, 50.79205649020718 ], [ 4.394478061955355, 50.792372597133891 ], [ 4.395077077000344, 50.792562924704121 ], [ 4.398036175238816, 50.793519314253253 ], [ 4.398605838955756, 50.793703454767751 ], [ 4.399743858626199, 50.794068644370377 ], [ 4.40075577476302, 50.794412076249394 ], [ 4.400627801925222, 50.794583894909358 ], [ 4.400377089495136, 50.794497025529296 ], [ 4.400262700069772, 50.794457304839632 ], [ 4.400291325501521, 50.794503081201711 ], [ 4.400318163030296, 50.79452695928741 ], [ 4.40037138380044, 50.794573996394035 ], [ 4.40039578539537, 50.794623711355939 ], [ 4.400408686047102, 50.794676243244972 ], [ 4.400420925227732, 50.794756867935682 ], [ 4.400416296063252, 50.794790436524956 ], [ 4.400416107267607, 50.794845920626344 ], [ 4.400421022095673, 50.794897753524275 ], [ 4.400417280032976, 50.794942558915196 ], [ 4.400413999085071, 50.794997900034062 ], [ 4.400405389764559, 50.795039479487308 ], [ 4.400402541450245, 50.795084572297782 ], [ 4.400400795604082, 50.795124046279696 ], [ 4.400382430694583, 50.795169835572707 ], [ 4.400367382839256, 50.795212828170371 ], [ 4.400355234425018, 50.795264521935593 ], [ 4.400339086045508, 50.795316072966692 ], [ 4.400311856197519, 50.795362008522417 ], [ 4.400278877268868, 50.795421996455126 ], [ 4.400254088563048, 50.795470322568256 ], [ 4.400199161052307, 50.795521605547385 ], [ 4.400148884787193, 50.795571484842945 ], [ 4.400090192382308, 50.795614066832293 ], [ 4.400042120191114, 50.795651575738304 ], [ 4.399986077889459, 50.795691064516184 ], [ 4.399927158908289, 50.795734626354552 ], [ 4.39987199438935, 50.795772002273686 ], [ 4.399810402360529, 50.795806296463141 ], [ 4.399738399757717, 50.795841429471167 ], [ 4.3996750351991, 50.795876703938326 ], [ 4.399613458670838, 50.79591338027258 ], [ 4.399542556283835, 50.795939801905703 ], [ 4.399464570622105, 50.795979440159094 ], [ 4.399372393772025, 50.796008537310755 ], [ 4.399353339204996, 50.79602174817618 ], [ 4.399383413819884, 50.796144677667179 ], [ 4.399460565627729, 50.796132652230405 ], [ 4.399529128747461, 50.796392361744715 ], [ 4.400037295554903, 50.796316531435117 ], [ 4.400386902277265, 50.796269689398471 ], [ 4.400562624364649, 50.79624195270889 ], [ 4.400598786942699, 50.796231964176734 ], [ 4.400631115816092, 50.796216223332593 ], [ 4.400679884823488, 50.796181150187678 ], [ 4.40074196556873, 50.796115508549143 ], [ 4.400761943058733, 50.796083769561562 ], [ 4.400769870513388, 50.796061293259633 ], [ 4.400774382479097, 50.796022546670059 ], [ 4.400838243574878, 50.795458788722179 ], [ 4.400890187204038, 50.795096042305417 ], [ 4.400969969211763, 50.794383680945977 ], [ 4.400982068844314, 50.794304396251 ], [ 4.401021281349953, 50.794047448366598 ], [ 4.401081203950896, 50.794035470300415 ], [ 4.401129430048826, 50.794049072974317 ], [ 4.401592270531445, 50.794082261660549 ], [ 4.401989142530774, 50.794108307256991 ], [ 4.402513604611041, 50.794154885915503 ], [ 4.402552956081262, 50.794158380710257 ], [ 4.402551369753961, 50.794158239824156 ], [ 4.402612311411524, 50.793843290314463 ], [ 4.402634729585306, 50.793783197263842 ], [ 4.402692572916194, 50.793628144502343 ], [ 4.402747765963092, 50.793385740463272 ], [ 4.402800668158886, 50.79315335152387 ], [ 4.402948019717049, 50.792506143311492 ], [ 4.403029862747865, 50.79251238448667 ], [ 4.403064900245532, 50.792515056353416 ], [ 4.403530803719789, 50.79255058392269 ], [ 4.403744895502646, 50.792587223625851 ], [ 4.403887176074026, 50.792587955595771 ], [ 4.403989028613835, 50.792588479479626 ], [ 4.404347675825712, 50.792590328687268 ], [ 4.404758591341255, 50.792633530777799 ], [ 4.4051732073211, 50.792692102545537 ], [ 4.405782864550661, 50.79277955686095 ], [ 4.405793084140601, 50.792736187528732 ], [ 4.406626331100599, 50.792778922659515 ], [ 4.40680859428163, 50.792791987400186 ], [ 4.40709715378967, 50.792883406179833 ], [ 4.407269875079733, 50.792741141796192 ], [ 4.407497975217525, 50.79255326211311 ], [ 4.407595212920067, 50.792512708104937 ], [ 4.407628271306096, 50.792498920728129 ], [ 4.407796707955596, 50.792347172456751 ], [ 4.407851766748009, 50.792297584867541 ], [ 4.407888145441905, 50.792264808171822 ], [ 4.407934531845362, 50.792223014591144 ], [ 4.40838094129974, 50.792308892707645 ], [ 4.408342161982826, 50.792371447006808 ], [ 4.408342162465146, 50.7923714471235 ], [ 4.408567432605509, 50.792424255424471 ], [ 4.408729746928965, 50.792462306295121 ], [ 4.408729746928959, 50.792462306286147 ], [ 4.408767556171336, 50.792393747114367 ], [ 4.408783402031789, 50.792365010702731 ], [ 4.408806399030745, 50.792323308733877 ], [ 4.408809613511767, 50.792317482325934 ], [ 4.408842437982861, 50.792257977433671 ], [ 4.408892144294579, 50.792268393079858 ], [ 4.408964674389967, 50.792283591266269 ], [ 4.40904778771312, 50.792301505549709 ], [ 4.409122290440303, 50.792317561935825 ], [ 4.409244329199094, 50.792343867748286 ], [ 4.409372283501071, 50.792371447877215 ], [ 4.409448658954282, 50.792387907929225 ], [ 4.409526935348602, 50.792404789771851 ], [ 4.40953955441412, 50.792381462750043 ], [ 4.409564869650507, 50.792334666098824 ], [ 4.409631953629455, 50.792349250486986 ], [ 4.409693525321916, 50.792415593372283 ], [ 4.409707734408342, 50.792430903485325 ], [ 4.409827929659517, 50.792456822789852 ], [ 4.409818961553919, 50.792483758962092 ], [ 4.409842981208982, 50.792448657279607 ], [ 4.409873920163515, 50.792403443853459 ], [ 4.410516975044635, 50.791491159062581 ], [ 4.41113721024392, 50.791027921639362 ], [ 4.411325754446691, 50.79088710044558 ], [ 4.411380698862146, 50.790842410577682 ], [ 4.411388252472109, 50.790836267854289 ], [ 4.411606376819541, 50.790588567100592 ], [ 4.411669380437025, 50.790517813104273 ], [ 4.411526096464543, 50.790380333705883 ], [ 4.411543938827021, 50.790366033541581 ], [ 4.411574499059228, 50.790341682178337 ], [ 4.411592066590991, 50.790327683801294 ], [ 4.411602071091989, 50.790319698191226 ], [ 4.411659255340802, 50.790274053533416 ], [ 4.411940195150465, 50.790291793096529 ], [ 4.412028109894672, 50.790120344452191 ], [ 4.41314870020599, 50.788919571418703 ], [ 4.414523753382461, 50.787509670120883 ], [ 4.415603743253647, 50.786402239040463 ], [ 4.415681778103373, 50.785865605554804 ], [ 4.415738366661793, 50.785855875140633 ], [ 4.415806947335727, 50.785844082653696 ], [ 4.415827986919347, 50.785840464871029 ], [ 4.41594032067133, 50.78605571238414 ], [ 4.415975495329015, 50.786019487650407 ], [ 4.415988159894981, 50.786006447462078 ], [ 4.416062574730121, 50.785929852054615 ], [ 4.416137145249547, 50.785853193606748 ], [ 4.41621194238455, 50.78577649905796 ], [ 4.416287037056921, 50.785699786358002 ], [ 4.416362500215778, 50.78562310042529 ], [ 4.416438416963227, 50.785546459203331 ], [ 4.416514844048474, 50.785469889636737 ], [ 4.416591852410636, 50.785393427653752 ], [ 4.416669512979331, 50.785317100192785 ], [ 4.416747825845034, 50.785240997149167 ], [ 4.416826762672099, 50.785165145502361 ], [ 4.416906337648851, 50.785089554234851 ], [ 4.417148749690496, 50.784864378713387 ], [ 4.417442411026231, 50.784601379546388 ], [ 4.417495727098887, 50.784409472683166 ], [ 4.417517136702332, 50.78437959998147 ], [ 4.417766937261376, 50.7843222750313 ], [ 4.418911665683759, 50.783421891190933 ], [ 4.419028043057269, 50.783341672992627 ], [ 4.420099660982147, 50.78260299503355 ], [ 4.421019740453176, 50.782006792312878 ], [ 4.421159125511013, 50.781916472920159 ], [ 4.421308102696944, 50.78181992814703 ], [ 4.421240525189706, 50.781772610255118 ], [ 4.421221868834467, 50.781700989029396 ], [ 4.421705287737706, 50.781604489244593 ], [ 4.422040868563458, 50.781397725453402 ], [ 4.422289700439123, 50.781010362413923 ], [ 4.422420250024128, 50.780996961222669 ], [ 4.422502417321022, 50.781042743418411 ], [ 4.422667648240349, 50.781016191914603 ], [ 4.42399656649469, 50.780193674913789 ], [ 4.424038277494459, 50.78016785771279 ], [ 4.424346325370434, 50.779977188811316 ], [ 4.424644556013784, 50.779984527333319 ], [ 4.424878303947478, 50.780137665040833 ], [ 4.424865509722858, 50.780316550079554 ], [ 4.424818269612798, 50.780285720419798 ], [ 4.423604019325129, 50.781014259322347 ], [ 4.422929091143657, 50.781613019888027 ], [ 4.422520385372057, 50.781793327678137 ], [ 4.422497236919832, 50.781885302767414 ], [ 4.422416347643501, 50.781927699660251 ], [ 4.421732446775608, 50.782180912436594 ], [ 4.421388442749529, 50.782343449962511 ], [ 4.421373326363971, 50.782353288566384 ], [ 4.421351171588755, 50.78236770816202 ], [ 4.420770109754404, 50.782745891669386 ], [ 4.419939481395595, 50.783347239760324 ], [ 4.422328486729627, 50.784306183110914 ], [ 4.422455793516995, 50.78435728736121 ], [ 4.423105284378042, 50.784618005959665 ], [ 4.423169436392011, 50.784640627069521 ], [ 4.423563950835603, 50.78476908288485 ], [ 4.423948675820683, 50.784891698758088 ], [ 4.425611158704704, 50.7853019604824 ] ] ], [ [ [ 4.465269306167317, 50.800530832676841 ], [ 4.465308768020308, 50.800523014910119 ], [ 4.465415073993811, 50.800482113701996 ], [ 4.465553140096649, 50.80043399426917 ], [ 4.465634230537173, 50.800403056372232 ], [ 4.466011513502981, 50.800250493166793 ], [ 4.466135405046506, 50.800250970531287 ], [ 4.46614269145687, 50.80025979154123 ], [ 4.466173751635421, 50.800269922500291 ], [ 4.467118273419108, 50.799875963402989 ], [ 4.467369608183387, 50.799775776076196 ], [ 4.467535575809326, 50.799709111996698 ], [ 4.467833768930457, 50.799585161085112 ], [ 4.468475066554213, 50.799313575747284 ], [ 4.468738815375572, 50.799203765757412 ], [ 4.469003072998261, 50.799088676772151 ], [ 4.469113752073936, 50.799040473680627 ], [ 4.469123295233374, 50.799036317424715 ], [ 4.469221818911831, 50.799007555462211 ], [ 4.469389482425568, 50.798940437792503 ], [ 4.46951922450388, 50.79888332910884 ], [ 4.469561990809282, 50.798864504554942 ], [ 4.46978222831661, 50.798780055858124 ], [ 4.47020849631013, 50.798616746260215 ], [ 4.470728083260345, 50.798401953603197 ], [ 4.471518971206089, 50.798077293358986 ], [ 4.473028982898073, 50.79746019220444 ], [ 4.473375855026802, 50.797306603215375 ], [ 4.473398257437758, 50.797296683737542 ], [ 4.473743690783042, 50.7971437296669 ], [ 4.474192267521967, 50.796933337362582 ], [ 4.474485448593759, 50.796784652316553 ], [ 4.474857397563031, 50.796583736695702 ], [ 4.475231849589304, 50.796371255435275 ], [ 4.475485326326315, 50.796215663753188 ], [ 4.475862737914253, 50.795979932701059 ], [ 4.476035596554221, 50.795868209487203 ], [ 4.47643424368591, 50.795599399254769 ], [ 4.47661186018542, 50.795479577262896 ], [ 4.476707818177727, 50.795409997211017 ], [ 4.477111637383247, 50.795134586713999 ], [ 4.477455305313039, 50.794895184339751 ], [ 4.477668308612391, 50.794746802467806 ], [ 4.478172751846656, 50.794365885677273 ], [ 4.478113586795526, 50.794299971219459 ], [ 4.477186241333748, 50.793433261119461 ], [ 4.477040577487736, 50.793297118066 ], [ 4.47677517507893, 50.793049061499744 ], [ 4.476578314002131, 50.792865055045894 ], [ 4.476449154090462, 50.792744335714673 ], [ 4.476154236428303, 50.792468670823432 ], [ 4.475941503884882, 50.792269836002262 ], [ 4.475717814708514, 50.792060753660785 ], [ 4.475448702402095, 50.791809209445567 ], [ 4.475349196664439, 50.791716194769975 ], [ 4.475286417742095, 50.791657522836339 ], [ 4.475067339355017, 50.791452741049007 ], [ 4.474850534533709, 50.791250084432868 ], [ 4.474632793289365, 50.791046550337583 ], [ 4.474529330521428, 50.790949837526405 ], [ 4.474529330507245, 50.790949837526426 ], [ 4.474528039237418, 50.790943276251134 ], [ 4.474537083903795, 50.790929064374126 ], [ 4.474379094531075, 50.790883109288451 ], [ 4.47391746084175, 50.790760099365059 ], [ 4.473544233303166, 50.790658133741623 ], [ 4.473238987397242, 50.790576872017418 ], [ 4.472880383623217, 50.790480734422765 ], [ 4.472552751993625, 50.790393179820242 ], [ 4.472337999748382, 50.790336330988659 ], [ 4.472278768336689, 50.790320651259748 ], [ 4.472249497230159, 50.790312902601279 ], [ 4.472055792513769, 50.790260485228522 ], [ 4.47166271780272, 50.79015853122187 ], [ 4.471340726577233, 50.790069638145852 ], [ 4.471082172758015, 50.789999746485499 ], [ 4.470871157547436, 50.789942398062408 ], [ 4.470462895342136, 50.789832272765388 ], [ 4.470279954427369, 50.78978319000975 ], [ 4.470129990902884, 50.789744554552662 ], [ 4.469836104452074, 50.789664173019872 ], [ 4.46950817249478, 50.78957941530517 ], [ 4.469186646518471, 50.78949324978872 ], [ 4.468773255657349, 50.78938074872039 ], [ 4.468316040113979, 50.789254117038197 ], [ 4.468025286538572, 50.78917687465669 ], [ 4.46658767412556, 50.788791690115595 ], [ 4.465115835221267, 50.788392213725281 ], [ 4.464636352891977, 50.788262277915862 ], [ 4.464406344175435, 50.788202146697088 ], [ 4.46420587887458, 50.788150126424476 ], [ 4.463858618077266, 50.788055561020521 ], [ 4.463725055767783, 50.78802092513336 ], [ 4.463700778027711, 50.788014553308777 ], [ 4.463668341829124, 50.788006201423194 ], [ 4.463628624870769, 50.78799509564287 ], [ 4.463612107253879, 50.787990074907377 ], [ 4.463595589640511, 50.787985054169539 ], [ 4.463578987141688, 50.787980132384867 ], [ 4.463557716891413, 50.787974225540545 ], [ 4.463536333540095, 50.787968489588131 ], [ 4.463515119881001, 50.787962510772658 ], [ 4.463485688719636, 50.78795340125609 ], [ 4.463456625343789, 50.787943823970245 ], [ 4.463427731703555, 50.787934021797426 ], [ 4.46340383316401, 50.787925779752953 ], [ 4.463380061957658, 50.787917384775788 ], [ 4.463356389794289, 50.787908872847574 ], [ 4.463263953987944, 50.787873780455122 ], [ 4.463173244764745, 50.787836852696721 ], [ 4.463083597285996, 50.787798926154125 ], [ 4.462998843853105, 50.787761624852529 ], [ 4.462915053032747, 50.787723396774744 ], [ 4.462831304838753, 50.787685141633254 ], [ 4.462598842263054, 50.787579862763856 ], [ 4.462366621379755, 50.787474367484585 ], [ 4.462134401555387, 50.78736888073167 ], [ 4.462016860581549, 50.787316574328301 ], [ 4.461899334050348, 50.787264267794896 ], [ 4.461781807762459, 50.787211952153228 ], [ 4.461705330557321, 50.787177861588887 ], [ 4.461628867644323, 50.787143770962977 ], [ 4.461552334042484, 50.787109734281366 ], [ 4.46153173861078, 50.787100536313133 ], [ 4.461490420424974, 50.787082284301931 ], [ 4.461470237685454, 50.787073796177047 ], [ 4.461449927553078, 50.787065425015861 ], [ 4.461429688209755, 50.787056990867072 ], [ 4.461342779582602, 50.787018539403171 ], [ 4.461278365489712, 50.786988664093407 ], [ 4.460974338793006, 50.786848469125275 ], [ 4.460555891134022, 50.786660664615937 ], [ 4.460108418845776, 50.786466067251553 ], [ 4.460096935359953, 50.786460484703881 ], [ 4.460046235507691, 50.78643760987508 ], [ 4.459651354614324, 50.786259447500235 ], [ 4.459534896355513, 50.786206841090006 ], [ 4.459192512006676, 50.786055110715942 ], [ 4.459036332068671, 50.785986991574255 ], [ 4.458887328110829, 50.785918839690424 ], [ 4.458621672089762, 50.785799258090158 ], [ 4.45818219568247, 50.785602480644492 ], [ 4.457918234381212, 50.785484792957355 ], [ 4.457588721613785, 50.785340041960289 ], [ 4.457200230017569, 50.785163781200829 ], [ 4.456919396406478, 50.78503744704269 ], [ 4.456725439069751, 50.784950753838125 ], [ 4.456504400526144, 50.784850668178912 ], [ 4.455906863114624, 50.784581607608651 ], [ 4.454428848035819, 50.783909812103623 ], [ 4.454204669379603, 50.783814520020144 ], [ 4.453975574297885, 50.783717137256382 ], [ 4.45394142068571, 50.783705340887728 ], [ 4.453927886147809, 50.78370178191183 ], [ 4.453916468070414, 50.783700190120669 ], [ 4.453902968830879, 50.783700433746269 ], [ 4.453891087038398, 50.783702051217986 ], [ 4.45388542485305, 50.78370662250574 ], [ 4.453883544246925, 50.783709028629339 ], [ 4.453880841114026, 50.783712487128938 ], [ 4.45387843439206, 50.78371464641301 ], [ 4.454010254170584, 50.783916188042319 ], [ 4.454036011142888, 50.78395648942324 ], [ 4.454266092731404, 50.7843164897713 ], [ 4.4546186231045, 50.784857677471955 ], [ 4.454808890764957, 50.785145295946727 ], [ 4.455074692676877, 50.785558173944665 ], [ 4.455280291061489, 50.785850994221768 ], [ 4.455663283056698, 50.786440969767881 ], [ 4.45593790811184, 50.786862379259944 ], [ 4.456283474459724, 50.787375069618882 ], [ 4.456479480670015, 50.787686952969473 ], [ 4.456657831345214, 50.787960103888665 ], [ 4.456949100237988, 50.788399207896269 ], [ 4.45726974527426, 50.788890698472748 ], [ 4.458300756003402, 50.79046651470351 ], [ 4.458487212809582, 50.790740195790626 ], [ 4.45866360928759, 50.791017570102163 ], [ 4.458648158813663, 50.791021986980809 ], [ 4.458756326748174, 50.791189235700415 ], [ 4.458768501771886, 50.791208060585497 ], [ 4.458788743926333, 50.791239346881262 ], [ 4.458832372121807, 50.79130681638626 ], [ 4.458958985889179, 50.791499349040784 ], [ 4.459468640334586, 50.792274327329856 ], [ 4.459479270876721, 50.792270902967601 ], [ 4.459529898982189, 50.7923413423078 ], [ 4.459979819697449, 50.793014225009465 ], [ 4.460965990524485, 50.794531438913459 ], [ 4.461252351776523, 50.794958309506896 ], [ 4.46164148538714, 50.795566058830225 ], [ 4.461741248048031, 50.795733546044666 ], [ 4.461772577008062, 50.795781687494809 ], [ 4.462027339068408, 50.796159965354768 ], [ 4.462266368233839, 50.796527809315236 ], [ 4.462506953831184, 50.796891875852062 ], [ 4.462753390592946, 50.797271758899207 ], [ 4.462939330704527, 50.797544354115864 ], [ 4.463107940642524, 50.797789180378807 ], [ 4.463442446707997, 50.798274884071837 ], [ 4.463628887427115, 50.798545598887216 ], [ 4.46442142971185, 50.799741110592656 ], [ 4.464600398728643, 50.800009821142076 ], [ 4.464738353747377, 50.800216949480905 ], [ 4.46476166671947, 50.800247719734216 ], [ 4.46477973109519, 50.800271563308705 ], [ 4.464826126799536, 50.800324545853393 ], [ 4.464877384408354, 50.800375690476848 ], [ 4.464933319151696, 50.8004248175329 ], [ 4.464993746293857, 50.800471765354366 ], [ 4.465035794478713, 50.800493710211221 ], [ 4.465080745146521, 50.800512955760041 ], [ 4.46514608461645, 50.800534296963043 ], [ 4.465187283650843, 50.800536519216621 ], [ 4.465228589192622, 50.800535361265844 ], [ 4.465269306167317, 50.800530832676841 ] ] ], [ [ [ 4.464240643358806, 50.801026866405991 ], [ 4.464404018635155, 50.800798305666753 ], [ 4.464419387379873, 50.800738817629018 ], [ 4.464427147196331, 50.800683578952473 ], [ 4.464429374257294, 50.800628138063686 ], [ 4.46442605487554, 50.800572728704651 ], [ 4.464417217846397, 50.800517548623148 ], [ 4.464402892056833, 50.800462840514257 ], [ 4.464383120523248, 50.800408820091796 ], [ 4.46435800298402, 50.800355694032653 ], [ 4.46429012052568, 50.800248952971465 ], [ 4.463282803847989, 50.798698614573055 ], [ 4.463082568236213, 50.798374431059557 ], [ 4.4628934155282, 50.79805823898571 ], [ 4.462684208930478, 50.797714105005419 ], [ 4.46258602338547, 50.797558753414485 ], [ 4.462401867963835, 50.797255591429604 ], [ 4.462072329214692, 50.796741289338115 ], [ 4.462039325174545, 50.796692951551037 ], [ 4.461498440968156, 50.79588773250854 ], [ 4.46139405020308, 50.795746498537966 ], [ 4.461317515566526, 50.795633020296236 ], [ 4.461176702604707, 50.795434910668 ], [ 4.461152657914788, 50.795397532859816 ], [ 4.460971826461429, 50.795116660145339 ], [ 4.460382990433962, 50.794214745078129 ], [ 4.460179718399249, 50.793913482245216 ], [ 4.459992074485473, 50.793624432695822 ], [ 4.459784389330367, 50.793312205226734 ], [ 4.459521629575175, 50.792902932168246 ], [ 4.459319358044217, 50.792599869036863 ], [ 4.459096735916704, 50.792259783990666 ], [ 4.459113465824408, 50.792256714507701 ], [ 4.458734943371317, 50.79167798467094 ], [ 4.458494554345248, 50.791305962930601 ], [ 4.458458782049653, 50.791252349282786 ], [ 4.458421857732891, 50.791197010498664 ], [ 4.458416938552534, 50.791198146989188 ], [ 4.458400735008025, 50.791201881202191 ], [ 4.458260052194278, 50.790984350107252 ], [ 4.458104877753243, 50.790752806111932 ], [ 4.457886110434329, 50.790416940789342 ], [ 4.457749858829816, 50.790215137539242 ], [ 4.457573627611314, 50.789945672570909 ], [ 4.457401827118567, 50.789693194391226 ], [ 4.457098554742004, 50.78922766219015 ], [ 4.457044750550241, 50.78914638263317 ], [ 4.457010602621391, 50.789095059644239 ], [ 4.456776730309384, 50.788742743521183 ], [ 4.456651282872349, 50.788549650698698 ], [ 4.456413500822066, 50.788196806371417 ], [ 4.456251785408627, 50.78794620662125 ], [ 4.455149209549783, 50.786284303668403 ], [ 4.454851280783596, 50.78583180530071 ], [ 4.454647339398052, 50.785513182706246 ], [ 4.454361099793323, 50.785088632230014 ], [ 4.453518556349002, 50.783803277976489 ], [ 4.453445316323911, 50.783686888200798 ], [ 4.453422420024597, 50.783650514706665 ], [ 4.45331587772323, 50.783497317327559 ], [ 4.453307998822616, 50.783485988193952 ], [ 4.453250760071631, 50.783403675470566 ], [ 4.452578594461772, 50.783091447744305 ], [ 4.452285005562248, 50.782955070165499 ], [ 4.452052538073191, 50.782860441015224 ], [ 4.451892328760629, 50.782795227849768 ], [ 4.451757962858256, 50.782733906507005 ], [ 4.451605531472676, 50.782664327398628 ], [ 4.451539490361299, 50.782621682534966 ], [ 4.45150459768541, 50.782600132186154 ], [ 4.451434498290984, 50.782579820498988 ], [ 4.451254249080654, 50.782527601806976 ], [ 4.450865371764436, 50.782387503646788 ], [ 4.449044743885901, 50.781731586598248 ], [ 4.448851903159905, 50.781659451790375 ], [ 4.446422296837942, 50.780750565355063 ], [ 4.446346233995222, 50.780722415608786 ], [ 4.445347979816211, 50.780363842161584 ], [ 4.44518765899946, 50.780306252103735 ], [ 4.443936161623005, 50.779855958589515 ], [ 4.443540958386468, 50.779713754535429 ], [ 4.441684728922001, 50.779045312970943 ], [ 4.440711357043387, 50.778694774960286 ], [ 4.43958445717324, 50.778287516908186 ], [ 4.438669888558842, 50.777956972942945 ], [ 4.437176138201509, 50.777412199325241 ], [ 4.436358167616285, 50.777117574894213 ], [ 4.434978653595477, 50.776621626959418 ], [ 4.434742260498261, 50.77654687013365 ], [ 4.434680840145286, 50.776526498506797 ], [ 4.434641287643618, 50.776529757286028 ], [ 4.434619886747678, 50.776535522848562 ], [ 4.434609968257135, 50.776539933430278 ], [ 4.434609215004072, 50.776540799798596 ], [ 4.433725691768407, 50.777556970785881 ], [ 4.433712227877382, 50.777572455688798 ], [ 4.433584253101746, 50.77771528349534 ], [ 4.433454442452331, 50.77786395547394 ], [ 4.433413148102711, 50.777941109983438 ], [ 4.433326430368793, 50.77808328518681 ], [ 4.433326249809843, 50.778083524817475 ], [ 4.433295733340053, 50.778124025540251 ], [ 4.433292443765545, 50.778127720755606 ], [ 4.433236402853464, 50.778190672101452 ], [ 4.433202002554159, 50.778229616553979 ], [ 4.43313022611305, 50.778288332094185 ], [ 4.433095667525202, 50.778315446184031 ], [ 4.432759466952335, 50.778700903070941 ], [ 4.432550835262895, 50.778935774599248 ], [ 4.432375000409018, 50.779141671983773 ], [ 4.432212855762852, 50.779322947858553 ], [ 4.431898446165567, 50.779685934016818 ], [ 4.431707757925663, 50.77991123817214 ], [ 4.430775688488122, 50.780986204843316 ], [ 4.429397819547897, 50.782562221585771 ], [ 4.429156115961064, 50.782831049118791 ], [ 4.428988769505092, 50.783022535320825 ], [ 4.428817434363403, 50.78322292311379 ], [ 4.428441656588427, 50.783651978498476 ], [ 4.428245100831467, 50.783871984879816 ], [ 4.427977775927977, 50.784175738906242 ], [ 4.427892819793438, 50.784264294578861 ], [ 4.427659025400611, 50.784476785616008 ], [ 4.427610387742756, 50.784534173403664 ], [ 4.427556615216242, 50.784590476029116 ], [ 4.427301031018966, 50.784810133170417 ], [ 4.427114878821876, 50.78495505065235 ], [ 4.427038511278256, 50.785008128143708 ], [ 4.426851616790298, 50.785127694722689 ], [ 4.42656775861973, 50.785285983000783 ], [ 4.426285910842176, 50.78544315486608 ], [ 4.426239014332866, 50.785477248988151 ], [ 4.426217774138465, 50.785502430590086 ], [ 4.426202214599726, 50.785534351615098 ], [ 4.426202028950914, 50.785534851271784 ], [ 4.426189352739027, 50.785568968197737 ], [ 4.426167415416467, 50.785603858970831 ], [ 4.426156162492725, 50.785633741801874 ], [ 4.426186313394191, 50.785645606565531 ], [ 4.426267138618729, 50.78582422696708 ], [ 4.426279168344834, 50.785907932715766 ], [ 4.426279168344846, 50.785907932724761 ], [ 4.426267890296626, 50.786053660727632 ], [ 4.426267881048044, 50.786053693077022 ], [ 4.426240408800627, 50.78614983745679 ], [ 4.426240398718958, 50.786149872746236 ], [ 4.426217524372571, 50.786207040367785 ], [ 4.42617374467202, 50.786285281131661 ], [ 4.426173738089726, 50.786285290789827 ], [ 4.426055084046384, 50.786459259282438 ], [ 4.426055007974213, 50.786459370818875 ], [ 4.425983804915672, 50.786552035504961 ], [ 4.425948765119069, 50.786599733981546 ], [ 4.425912649291113, 50.786648907282647 ], [ 4.425876547568924, 50.78669808056496 ], [ 4.425869681143447, 50.786707424209958 ], [ 4.425739275989176, 50.786897116364223 ], [ 4.425705719196591, 50.786951879905196 ], [ 4.4256475410945, 50.787062607177702 ], [ 4.425646728015924, 50.787064295367834 ], [ 4.425533446688015, 50.787299499696715 ], [ 4.42531105907611, 50.787761232548903 ], [ 4.425267592125066, 50.787755357765107 ], [ 4.425231331448583, 50.78775045692975 ], [ 4.425175535875949, 50.787862935764096 ], [ 4.425279583286308, 50.787883875835597 ], [ 4.425504368322079, 50.787929114027285 ], [ 4.425544362020955, 50.787937162742018 ], [ 4.425530107508806, 50.787963976837815 ], [ 4.425523520368507, 50.787976367869746 ], [ 4.425502296655056, 50.788016292353191 ], [ 4.425581861761292, 50.788034075960567 ], [ 4.425731492100659, 50.788067519667884 ], [ 4.425710742550731, 50.788112370286342 ], [ 4.426151526161678, 50.788254227858786 ], [ 4.426151825650988, 50.788254296822721 ], [ 4.426015624790743, 50.788496383792065 ], [ 4.426013863080191, 50.788496493051895 ], [ 4.426013781470375, 50.788496636414365 ], [ 4.425193892320786, 50.78950317022619 ], [ 4.425174011608286, 50.789516425266001 ], [ 4.424997472879016, 50.789634128231043 ], [ 4.424739616436542, 50.789954536598884 ], [ 4.424707781835524, 50.789993612033584 ], [ 4.424554294366374, 50.790188348063964 ], [ 4.424521597320534, 50.790229913994757 ], [ 4.42449156243806, 50.790268098524862 ], [ 4.424458482929723, 50.790310141072851 ], [ 4.424449434224654, 50.790321661171511 ], [ 4.424437794069092, 50.7903364547495 ], [ 4.424430487110397, 50.790345744574992 ], [ 4.424424624561321, 50.790353208805946 ], [ 4.424407589131637, 50.790374864080029 ], [ 4.424404686153812, 50.790378542243431 ], [ 4.424376520333809, 50.790414370555027 ], [ 4.424331817337897, 50.790461650629275 ], [ 4.424301980577924, 50.790499727137345 ], [ 4.4242737595096, 50.790536921876395 ], [ 4.424247673854021, 50.790569018452423 ], [ 4.424232294365922, 50.790587958031097 ], [ 4.424213416926537, 50.790611187347523 ], [ 4.424185163240271, 50.790644930054107 ], [ 4.424180348206294, 50.790650793612663 ], [ 4.424150084370383, 50.790687728599075 ], [ 4.424124791757057, 50.790718979739623 ], [ 4.424083963902793, 50.790769512113862 ], [ 4.42395762785302, 50.790925893478757 ], [ 4.423939557510392, 50.790948250367784 ], [ 4.423884369256258, 50.791016562054573 ], [ 4.423852717727755, 50.791055745033937 ], [ 4.423833603680579, 50.791079398296738 ], [ 4.423820966996464, 50.791095035927334 ], [ 4.423788989631704, 50.791134614588302 ], [ 4.423728037058891, 50.791210057731263 ], [ 4.423651761097128, 50.791304467281968 ], [ 4.423610974721927, 50.79135495451527 ], [ 4.423557956890962, 50.791424478613898 ], [ 4.423510659892485, 50.791486520592386 ], [ 4.423446440539803, 50.791570739023967 ], [ 4.423419336652246, 50.791606287912487 ], [ 4.423389131495304, 50.791645910569464 ], [ 4.423210080764709, 50.79186909107375 ], [ 4.423170440980869, 50.791918507838048 ], [ 4.422949241189792, 50.79219421627112 ], [ 4.422942419849206, 50.792202870500169 ], [ 4.422928805498571, 50.79222014299414 ], [ 4.422913100095478, 50.792240251197633 ], [ 4.422910621796624, 50.792243434692743 ], [ 4.42285510764071, 50.7923145957405 ], [ 4.422850264291553, 50.792320791871838 ], [ 4.422845831523962, 50.792326367525391 ], [ 4.422794890130806, 50.792390532460047 ], [ 4.422778065425066, 50.792411728914566 ], [ 4.422745166558081, 50.792453168563213 ], [ 4.42273280291673, 50.792468744399933 ], [ 4.422695414507908, 50.792515822636759 ], [ 4.422662698007516, 50.792555653029481 ], [ 4.422543402702034, 50.792700891339955 ], [ 4.422408548452275, 50.79286506024971 ], [ 4.422408541314027, 50.792865068937026 ], [ 4.422445964150432, 50.792884118606963 ], [ 4.42245765700735, 50.792888741379997 ], [ 4.422476670418205, 50.792896258348058 ], [ 4.422421400618751, 50.792968809600211 ], [ 4.422417418134033, 50.792974037290179 ], [ 4.422417498505072, 50.79297409457984 ], [ 4.422455176363465, 50.793000952739902 ], [ 4.422529045238825, 50.793053791399181 ], [ 4.42381706054779, 50.793975086503849 ], [ 4.424083110145435, 50.793829417274978 ], [ 4.424677458467907, 50.794354576135028 ], [ 4.424189669816328, 50.79457536856939 ], [ 4.423989378806696, 50.794666027020199 ], [ 4.423483297458492, 50.794895093354931 ], [ 4.423466261775684, 50.794902804095621 ], [ 4.425760881422502, 50.796875515311854 ], [ 4.427664241387247, 50.798642194170739 ], [ 4.428972279883916, 50.799780255924887 ], [ 4.429207921093644, 50.799985348435207 ], [ 4.429689448914545, 50.800404381398948 ], [ 4.431042393718689, 50.801581581713215 ], [ 4.43133148537621, 50.80172986265444 ], [ 4.431751993903868, 50.802180356614478 ], [ 4.432696015272005, 50.802288083746568 ], [ 4.434541036765909, 50.801523841362716 ], [ 4.436838358373028, 50.800516486284991 ], [ 4.438847676660824, 50.799638351282198 ], [ 4.439572278806574, 50.800317671108452 ], [ 4.439873382186494, 50.80059996805187 ], [ 4.440193766589855, 50.800900312496424 ], [ 4.440422568431294, 50.801114807761927 ], [ 4.440744465733595, 50.801416579080488 ], [ 4.441329145598936, 50.801964672318306 ], [ 4.442709508195997, 50.803258603259678 ], [ 4.442890585556133, 50.803145371327126 ], [ 4.442953963425637, 50.803203952165248 ], [ 4.442953963439839, 50.803203952174229 ], [ 4.44302185827991, 50.803266701164617 ], [ 4.443410807836569, 50.803584352835088 ], [ 4.44522142093806, 50.805299400284447 ], [ 4.446407622324918, 50.80642244009185 ], [ 4.446431945251903, 50.806519215858415 ], [ 4.446361547704314, 50.806544424561849 ], [ 4.446239705835822, 50.806536011074456 ], [ 4.446258623077578, 50.806452971096576 ], [ 4.446239030164067, 50.806461271326782 ], [ 4.446221743850994, 50.80653477384125 ], [ 4.446095845377134, 50.806526083611544 ], [ 4.445737325410956, 50.806451113938749 ], [ 4.445717458488438, 50.806464765844055 ], [ 4.445691069695346, 50.806464512785887 ], [ 4.445691887989311, 50.8064450054624 ], [ 4.445604495273169, 50.80644470354158 ], [ 4.445600729338016, 50.806545002421011 ], [ 4.445069831255644, 50.806909908718374 ], [ 4.445611473567128, 50.807330859291639 ], [ 4.445517040518918, 50.808156553388571 ], [ 4.446254688585412, 50.807841257076419 ], [ 4.446812442013283, 50.808381741870029 ], [ 4.448212151899457, 50.807751345377447 ], [ 4.45028282020237, 50.806825909605166 ], [ 4.450560279347529, 50.80671954725063 ], [ 4.451033966558406, 50.806543915318599 ], [ 4.451470631482789, 50.806373791484269 ], [ 4.451533569255401, 50.806351758069077 ], [ 4.451610496222843, 50.806416724178192 ], [ 4.451650215084927, 50.80639908614851 ], [ 4.451923459938974, 50.8062795268266 ], [ 4.452185299304993, 50.806169216331938 ], [ 4.452556439532951, 50.806014238015187 ], [ 4.452884901525214, 50.805874302085336 ], [ 4.453102931448128, 50.805782180247213 ], [ 4.453254477944201, 50.805720041798708 ], [ 4.453288924772653, 50.805705903868642 ], [ 4.453288926686459, 50.805705903076159 ], [ 4.453289381111629, 50.805705716354915 ], [ 4.45333135600668, 50.805688470628738 ], [ 4.453374197885489, 50.805670868680863 ], [ 4.453374410389737, 50.805670781371802 ], [ 4.453374575332257, 50.80567071365877 ], [ 4.453486662807061, 50.805624709095632 ], [ 4.453486971015833, 50.805624582602768 ], [ 4.453486976260948, 50.805624580369511 ], [ 4.454079236552586, 50.805372891635059 ], [ 4.454079241556665, 50.805372889509833 ], [ 4.455879135498751, 50.804615707232081 ], [ 4.45587914413171, 50.804615703638738 ], [ 4.45659216637723, 50.804319502057929 ], [ 4.456805341516233, 50.80423143242016 ], [ 4.456805366025684, 50.80423142231524 ], [ 4.457120814651021, 50.804105249218459 ], [ 4.457246941582674, 50.804054800555406 ], [ 4.457292867842432, 50.804035291085107 ], [ 4.457439013379243, 50.803973208222764 ], [ 4.457439019501326, 50.803973204819997 ], [ 4.457624232922205, 50.80387031624965 ], [ 4.45762423443861, 50.803870315439404 ], [ 4.457761254507142, 50.803814797912217 ], [ 4.457864083157027, 50.803773133803006 ], [ 4.457864095276508, 50.803773128624705 ], [ 4.458305760828735, 50.803583655751964 ], [ 4.458305767703459, 50.803583652807049 ], [ 4.458575517067984, 50.803471074452148 ], [ 4.458575517067984, 50.803471074452148 ], [ 4.458625554475248, 50.803450179862374 ], [ 4.458625554489433, 50.803450179862359 ], [ 4.459309142310361, 50.803146172041977 ], [ 4.459309169878773, 50.803146159794608 ], [ 4.459603850589599, 50.803017468236341 ], [ 4.460012921634582, 50.802842659320817 ], [ 4.460196282282102, 50.802763351916241 ], [ 4.460325454000404, 50.802707482054586 ], [ 4.460325460350414, 50.802707479325711 ], [ 4.460686347091739, 50.802559854633998 ], [ 4.461300778426843, 50.802300094433932 ], [ 4.461713827514586, 50.802125468210384 ], [ 4.461713834134094, 50.802125465544144 ], [ 4.462067990478896, 50.801982880749819 ], [ 4.462162757924718, 50.801957002515877 ], [ 4.462262285519814, 50.801928515336797 ], [ 4.462282666013293, 50.801920177700978 ], [ 4.462282948987463, 50.801920061938745 ], [ 4.462630421693008, 50.801773446820462 ], [ 4.462833489764042, 50.801687761922899 ], [ 4.462841330645387, 50.801684493478213 ], [ 4.462931051498111, 50.801647093539358 ], [ 4.462957085715488, 50.801636241213437 ], [ 4.463459695592205, 50.801430689743214 ], [ 4.463489069378067, 50.80141783173471 ], [ 4.463649189707068, 50.801347740820511 ], [ 4.463859084996137, 50.801252279325503 ], [ 4.463973797093398, 50.801196247105111 ], [ 4.464012279050372, 50.801177450159472 ], [ 4.464060729813622, 50.801151833645086 ], [ 4.464109345763974, 50.801126129730712 ], [ 4.464159115821094, 50.801095643031303 ], [ 4.464164600426481, 50.801092283423131 ], [ 4.464194343821392, 50.801069605146367 ], [ 4.464218231404763, 50.80104755471195 ], [ 4.464240643358806, 50.801026866405991 ] ] ], [ [ [ 4.452138777618939, 50.821707696885674 ], [ 4.45339875322663, 50.821806700510287 ], [ 4.45372991137916, 50.821832724508639 ], [ 4.454117432180457, 50.821863166342887 ], [ 4.454389003923306, 50.821884505172463 ], [ 4.454644520834239, 50.821904579862803 ], [ 4.455012442026811, 50.82193348750026 ], [ 4.455217432245806, 50.821949588167122 ], [ 4.455504730783189, 50.821972154853221 ], [ 4.455783571246523, 50.821994058942565 ], [ 4.456464243684579, 50.822047522765871 ], [ 4.457620235174662, 50.822138320361283 ], [ 4.458072784919532, 50.822173861605677 ], [ 4.458117764665917, 50.822177394016094 ], [ 4.458117766113717, 50.822177394131828 ], [ 4.458117817256182, 50.82217543458011 ], [ 4.458117883155339, 50.822172791593275 ], [ 4.458113669887982, 50.822084750893247 ], [ 4.458104991143988, 50.822006710033357 ], [ 4.458043676759119, 50.821640386792915 ], [ 4.457979425921069, 50.821214815408204 ], [ 4.457961980839631, 50.821123863215334 ], [ 4.457923172709585, 50.820985848957186 ], [ 4.457827735346904, 50.820711254390119 ], [ 4.457612723868733, 50.820042468003869 ], [ 4.457487292087662, 50.819649539130459 ], [ 4.45746326411382, 50.819596060438798 ], [ 4.457446683771118, 50.819570992141074 ], [ 4.457426476341592, 50.819548992054663 ], [ 4.457402822452067, 50.819528028393854 ], [ 4.457376843664619, 50.819508343020807 ], [ 4.45732454625348, 50.819476811434342 ], [ 4.457245271204323, 50.819437587288867 ], [ 4.457028462746555, 50.819349348461685 ], [ 4.456974084636911, 50.819327958549636 ], [ 4.456956400199591, 50.819321526735237 ], [ 4.4569024556158, 50.819301907103807 ], [ 4.456830840865082, 50.81927585560323 ], [ 4.456785609895312, 50.819258665802039 ], [ 4.456676349162778, 50.819264205131617 ], [ 4.456516422370981, 50.819267652072426 ], [ 4.456334059197007, 50.819263384649616 ], [ 4.456117621233906, 50.819250422647769 ], [ 4.455983777058415, 50.819238387177677 ], [ 4.455854469215518, 50.819223741177375 ], [ 4.455718340211697, 50.819203976071734 ], [ 4.455618260859674, 50.819186521177983 ], [ 4.455380471173534, 50.819138154794082 ], [ 4.455185680343049, 50.819089576183643 ], [ 4.45509182816713, 50.819062767042119 ], [ 4.454882528647155, 50.818995500359691 ], [ 4.454556354964422, 50.818883012088634 ], [ 4.454421086578514, 50.818836483740853 ], [ 4.454261423071429, 50.818781557128226 ], [ 4.454152373964793, 50.81874720715512 ], [ 4.453897086645358, 50.818673320182675 ], [ 4.453688957418199, 50.818623400410146 ], [ 4.453552957611937, 50.818595182482362 ], [ 4.453439533304117, 50.81857351035363 ], [ 4.453304253922249, 50.818551134843922 ], [ 4.453184309540751, 50.818533602419592 ], [ 4.453005366924041, 50.8185115777014 ], [ 4.45288879063076, 50.818497229036751 ], [ 4.452765165187795, 50.818484283536776 ], [ 4.452464278443416, 50.818461307447279 ], [ 4.452313986106438, 50.818454853173122 ], [ 4.452259186813775, 50.818455730873225 ], [ 4.452051686824817, 50.818460017009329 ], [ 4.451824814272011, 50.818463649910839 ], [ 4.451636936433228, 50.818474401540406 ], [ 4.451458696958638, 50.818489369984718 ], [ 4.451258363043824, 50.818510758994591 ], [ 4.451193548777946, 50.81851976714006 ], [ 4.451092650855555, 50.818533790260986 ], [ 4.451071853470459, 50.818537409815548 ], [ 4.450890631264687, 50.818566718213091 ], [ 4.450839973138439, 50.818576606586184 ], [ 4.450750616952207, 50.818594810641919 ], [ 4.450576401279783, 50.818630307434972 ], [ 4.450484795237837, 50.818652333445662 ], [ 4.450389575867602, 50.81867746332977 ], [ 4.450201109197671, 50.818735758173247 ], [ 4.450086940347633, 50.818774700102672 ], [ 4.449981046940556, 50.81881497558544 ], [ 4.449890304016129, 50.818852228885106 ], [ 4.449800472947946, 50.818891656957938 ], [ 4.449702379487233, 50.818937473322194 ], [ 4.449597739897007, 50.818989227283737 ], [ 4.449506914709565, 50.819036710489726 ], [ 4.449419628135108, 50.81908722065878 ], [ 4.449328306131144, 50.819143055394186 ], [ 4.44916409275211, 50.819253039835125 ], [ 4.449084226239342, 50.819311149805323 ], [ 4.449008334840441, 50.81937030875639 ], [ 4.448951752891682, 50.81941862188458 ], [ 4.448777796595746, 50.819574756032402 ], [ 4.448712338466454, 50.819644272592313 ], [ 4.448663317742422, 50.819699673156073 ], [ 4.448615028089635, 50.81975941516481 ], [ 4.44854322973027, 50.819856003618483 ], [ 4.44848661004757, 50.819940967070991 ], [ 4.448434892263466, 50.820029504987026 ], [ 4.448382907160561, 50.82012782372697 ], [ 4.448338628685517, 50.820218379153999 ], [ 4.448293065036262, 50.82032933280329 ], [ 4.448208247999482, 50.820557051983172 ], [ 4.447953593861163, 50.821257262438607 ], [ 4.447951088232257, 50.821277679481781 ], [ 4.447957129758318, 50.821333734382591 ], [ 4.44795435948843, 50.821395931314456 ], [ 4.447954667441283, 50.821395943833814 ], [ 4.449002199630102, 50.821470045268626 ], [ 4.449424155240025, 50.821499894737421 ], [ 4.449763309242312, 50.821523877706262 ], [ 4.45000459755033, 50.821540951136278 ], [ 4.450127627701498, 50.821549630106631 ], [ 4.450560209705668, 50.82158363036546 ], [ 4.450838037711373, 50.821605468802161 ], [ 4.450983681206776, 50.821616914257099 ], [ 4.45112757606179, 50.821628222465563 ], [ 4.451422904471244, 50.821651432057351 ], [ 4.451848334655981, 50.821684865945578 ], [ 4.451892605627653, 50.82168888903464 ], [ 4.452127783476767, 50.821706833105047 ], [ 4.452138777618939, 50.821707696885674 ] ] ], [ [ [ 4.460436710317612, 50.822377382183859 ], [ 4.461688610350685, 50.822483640792349 ], [ 4.462121603478844, 50.822266797780458 ], [ 4.464322055864527, 50.821185839275024 ], [ 4.465007606657636, 50.820846052400903 ], [ 4.465531399375377, 50.82059126675609 ], [ 4.466120337284166, 50.820301580639928 ], [ 4.466585349233398, 50.820079471590844 ], [ 4.466580420031188, 50.820070396252675 ], [ 4.466565923837027, 50.820060340099907 ], [ 4.466555131875707, 50.820057202813558 ], [ 4.46653085782516, 50.820053897060895 ], [ 4.465097838734142, 50.819925372392731 ], [ 4.465023042191, 50.819921209182269 ], [ 4.464923416734705, 50.819919853215261 ], [ 4.464810746809702, 50.819924081473829 ], [ 4.464685887355594, 50.819935601236793 ], [ 4.464583168951812, 50.819948451074829 ], [ 4.464489825563495, 50.819965608111829 ], [ 4.46440542959617, 50.819986173762992 ], [ 4.464293815018721, 50.820020785454616 ], [ 4.464018145821495, 50.820123492712867 ], [ 4.463799755699664, 50.820200262547118 ], [ 4.463681757175189, 50.820236407096388 ], [ 4.463540486306119, 50.820273379547416 ], [ 4.46343112261806, 50.820298909100309 ], [ 4.463320334395473, 50.820321832729149 ], [ 4.463208262659118, 50.820341700836273 ], [ 4.46311193180609, 50.820355892635305 ], [ 4.46301474505703, 50.82036792754819 ], [ 4.462917128165952, 50.820377805228354 ], [ 4.462786019577588, 50.820387709896416 ], [ 4.462654193771791, 50.820393839371334 ], [ 4.462522076521492, 50.820396193307587 ], [ 4.462418051524172, 50.82039519833922 ], [ 4.462314021667545, 50.82039177609483 ], [ 4.462210271335125, 50.820386196033468 ], [ 4.462113329832857, 50.820379082188147 ], [ 4.461920855111075, 50.820359369483214 ], [ 4.461899158593372, 50.820356464816655 ], [ 4.461770670103538, 50.820339263078687 ], [ 4.461696425818968, 50.820327546053697 ], [ 4.461574335425517, 50.820305169556228 ], [ 4.461453799949319, 50.820279645338339 ], [ 4.461334962038488, 50.820251332874584 ], [ 4.461154207902734, 50.820201764164743 ], [ 4.46097358647203, 50.820147340695122 ], [ 4.460237031464574, 50.81991733936205 ], [ 4.458685988022791, 50.819433560661992 ], [ 4.458335260646057, 50.81932577647607 ], [ 4.458194555576444, 50.819288488077461 ], [ 4.458072743733449, 50.819261073547601 ], [ 4.457893164056379, 50.819228219529521 ], [ 4.457812542189577, 50.819219471493895 ], [ 4.45775009240794, 50.819214664917695 ], [ 4.457609732710237, 50.819209288582712 ], [ 4.457438168336109, 50.819212116400344 ], [ 4.45727385040175, 50.819219702932472 ], [ 4.45718715513966, 50.819226061593355 ], [ 4.457026113465614, 50.819240207684615 ], [ 4.456953040678209, 50.819246106353042 ], [ 4.456952515179569, 50.819253388316049 ], [ 4.456952003854822, 50.819260661278733 ], [ 4.457107777909403, 50.819319982186023 ], [ 4.457210533995017, 50.819356617547925 ], [ 4.457322640598298, 50.819407377327863 ], [ 4.457398837917449, 50.819447511715204 ], [ 4.457435491755165, 50.819468959893172 ], [ 4.457469567099016, 50.819492648433076 ], [ 4.457512013096435, 50.819530129588813 ], [ 4.457530403101611, 50.819551609651853 ], [ 4.457544552471012, 50.819574405428689 ], [ 4.457576918730299, 50.819654450949827 ], [ 4.457821355141622, 50.820424356742478 ], [ 4.457854377927417, 50.820522553702197 ], [ 4.458008597021469, 50.820981135826045 ], [ 4.458057910513467, 50.821165384397922 ], [ 4.458077734232312, 50.82126815604822 ], [ 4.458143176560325, 50.82171513064813 ], [ 4.458196251062573, 50.822002468733182 ], [ 4.458216138490259, 50.8221825596572 ], [ 4.458216111191978, 50.822183126021663 ], [ 4.458216024663132, 50.822185109998394 ], [ 4.458216024649459, 50.82218511026808 ], [ 4.458235105341093, 50.822186608645957 ], [ 4.458403468400556, 50.822200479284547 ], [ 4.460436710317612, 50.822377382183859 ] ] ], [ [ [ 4.465521056108924, 50.82282825325521 ], [ 4.465945854458495, 50.822865545727353 ], [ 4.466623681201722, 50.822925047209651 ], [ 4.467142034405585, 50.822970545949509 ], [ 4.467732311243648, 50.823022356028538 ], [ 4.468343172418058, 50.823075971644428 ], [ 4.468343172418058, 50.823075971644428 ], [ 4.46834317267118, 50.823075970547478 ], [ 4.468342589050504, 50.822715713679585 ], [ 4.468166214467671, 50.822484643455788 ], [ 4.467958541718895, 50.822210368738276 ], [ 4.467932334847129, 50.822166252228975 ], [ 4.467905797623569, 50.822100201418159 ], [ 4.467889489691159, 50.822039355846144 ], [ 4.467875382103096, 50.821945336843804 ], [ 4.467857021612734, 50.821786596473132 ], [ 4.467811240755078, 50.82161354104641 ], [ 4.467736242090914, 50.82134796269235 ], [ 4.467691982881782, 50.821189379133685 ], [ 4.467611820115294, 50.820930637143199 ], [ 4.467533613146984, 50.820690367015956 ], [ 4.467455406977703, 50.82045009682097 ], [ 4.467441824103091, 50.820402283747647 ], [ 4.467424428007298, 50.820363193801711 ], [ 4.467407919497808, 50.820341183311641 ], [ 4.467400918264302, 50.820318715283193 ], [ 4.467400446198111, 50.820296781096225 ], [ 4.467416625259201, 50.820230019715645 ], [ 4.467432804274366, 50.820163258331661 ], [ 4.467427777114069, 50.820134765608103 ], [ 4.467158286292095, 50.82011031786444 ], [ 4.466855502120837, 50.820082849036055 ], [ 4.466680080737387, 50.820162842248685 ], [ 4.466638681598361, 50.820181719241582 ], [ 4.466253741785709, 50.82036542087031 ], [ 4.465635405852289, 50.820665182480916 ], [ 4.464442212515627, 50.821253144429626 ], [ 4.461895821231555, 50.822507557841107 ], [ 4.461887556527706, 50.822511629004516 ], [ 4.461887557223314, 50.822511629102834 ], [ 4.4618917253043, 50.822509575944956 ], [ 4.462760582556825, 50.822585877538046 ], [ 4.463374394491402, 50.822639776791256 ], [ 4.463374843226508, 50.822638451029917 ], [ 4.464082757758239, 50.822701975442385 ], [ 4.465521056108924, 50.82282825325521 ] ] ], [ [ [ 4.474306308688381, 50.823614590459471 ], [ 4.47542454419967, 50.8220863834133 ], [ 4.476528595091533, 50.820577452888912 ], [ 4.476234108377665, 50.82071684661971 ], [ 4.475939253349666, 50.820833209030603 ], [ 4.47577054009546, 50.820876439614892 ], [ 4.4755883521094, 50.820906901689284 ], [ 4.475438463248374, 50.820918115630924 ], [ 4.475291020049854, 50.820920901394686 ], [ 4.475206932217014, 50.820918034457051 ], [ 4.475101726160872, 50.820914447414744 ], [ 4.474510441629163, 50.82085174543203 ], [ 4.474313673391485, 50.820814077622494 ], [ 4.474152663134252, 50.820762722269201 ], [ 4.473985209601736, 50.820702568090375 ], [ 4.473450909641135, 50.820473266815569 ], [ 4.473318154956879, 50.82050772631333 ], [ 4.473198436897588, 50.820533543966313 ], [ 4.473050760989906, 50.820559116853303 ], [ 4.472966206138414, 50.820570879016095 ], [ 4.472864615111733, 50.820579779683435 ], [ 4.472724846878356, 50.820587725502236 ], [ 4.472580666067171, 50.820589741962813 ], [ 4.472422277050312, 50.820584219645049 ], [ 4.472249964334979, 50.820571427926062 ], [ 4.46899808428732, 50.820276707818074 ], [ 4.468622917681622, 50.820242700169267 ], [ 4.467540122622589, 50.820144765623269 ], [ 4.467513275279485, 50.820166156648511 ], [ 4.467500971029342, 50.820186123966231 ], [ 4.467497616164483, 50.820243839948461 ], [ 4.467490186275498, 50.820320707202008 ], [ 4.46748287460484, 50.82035280622145 ], [ 4.467488625167627, 50.820387815776307 ], [ 4.467494375738975, 50.820422825330553 ], [ 4.467509620239889, 50.820484615791713 ], [ 4.46758758285963, 50.820743764281424 ], [ 4.467719180794334, 50.82116575835925 ], [ 4.467897134057279, 50.821796271065104 ], [ 4.467909261816303, 50.821860176658205 ], [ 4.467921317353946, 50.82195689428103 ], [ 4.467933372941174, 50.822053611900117 ], [ 4.467949388697051, 50.822110502299346 ], [ 4.467972917804625, 50.822163430876664 ], [ 4.468002399362145, 50.822212488854319 ], [ 4.468041976943832, 50.822270797481096 ], [ 4.468206727540215, 50.822488869913158 ], [ 4.46837149387563, 50.82270695107826 ], [ 4.468510217301672, 50.823090336609738 ], [ 4.468510218011415, 50.82309033667206 ], [ 4.468910820328072, 50.823127529081184 ], [ 4.469382801924814, 50.823171346595785 ], [ 4.469802364970908, 50.823210294363264 ], [ 4.47015405023683, 50.823242934584954 ], [ 4.470522327699979, 50.823277124947452 ], [ 4.473342635550573, 50.823538874636711 ], [ 4.474296918135885, 50.823627423348988 ], [ 4.474306308688381, 50.823614590459471 ] ] ], [ [ [ 4.442201113832547, 50.817201953139424 ], [ 4.442917306896978, 50.817282414632565 ], [ 4.445063198161098, 50.817510198111698 ], [ 4.446685820515258, 50.817664253776172 ], [ 4.449040427586946, 50.817874195517462 ], [ 4.450649149087339, 50.818021154424329 ], [ 4.450835622444826, 50.818035125880265 ], [ 4.454696978014909, 50.81837168034005 ], [ 4.454697320201527, 50.818368408021072 ], [ 4.454819929109878, 50.818210868460923 ], [ 4.45483443358103, 50.818189482030064 ], [ 4.454836435296833, 50.818189658254376 ], [ 4.454851414380658, 50.818170411836931 ], [ 4.454975920546159, 50.817987582564506 ], [ 4.455076812560897, 50.817857137978265 ], [ 4.455144554692544, 50.81778250289203 ], [ 4.455208466192395, 50.81772162055843 ], [ 4.45535098456352, 50.817627000619552 ], [ 4.455545677756362, 50.817513985479202 ], [ 4.456242889272679, 50.817179519639936 ], [ 4.456403621050004, 50.817102412236544 ], [ 4.45652530090851, 50.817031921879355 ], [ 4.457448504570489, 50.816397554169214 ], [ 4.457538004945344, 50.816336053824934 ], [ 4.456783318138629, 50.81587344103567 ], [ 4.456043745552157, 50.815530302355562 ], [ 4.455215072241841, 50.815156994729307 ], [ 4.454194115728474, 50.815050901083488 ], [ 4.453473650161086, 50.814621734492228 ], [ 4.453061064700775, 50.814254790415099 ], [ 4.452726054086145, 50.814020790717301 ], [ 4.452021668216243, 50.813722422498628 ], [ 4.451751289941185, 50.813440291423348 ], [ 4.45058393244853, 50.81314053548099 ], [ 4.448421934795652, 50.811746740657803 ], [ 4.448209969712961, 50.811569989595888 ], [ 4.447876387714834, 50.811319725924406 ], [ 4.448072812917246, 50.811159648955794 ], [ 4.448164661316167, 50.811029542599016 ], [ 4.448419789764422, 50.81075736965078 ], [ 4.44853531557863, 50.810609680828129 ], [ 4.448678422286559, 50.810412980849399 ], [ 4.448780311666657, 50.810256491344923 ], [ 4.448962741549258, 50.810072886981139 ], [ 4.449111853618401, 50.809986303609179 ], [ 4.449333300033445, 50.809804020985666 ], [ 4.449500543537875, 50.809701334451248 ], [ 4.449691297526904, 50.809599348833672 ], [ 4.449939473301916, 50.809467226730831 ], [ 4.450333131519496, 50.809317515935533 ], [ 4.450522161631404, 50.809254600316201 ], [ 4.451393824772269, 50.808998738946315 ], [ 4.451948130991721, 50.808837474445191 ], [ 4.452207410421605, 50.808835013778108 ], [ 4.45268297769488, 50.808946474567939 ], [ 4.453047343557225, 50.809177414727372 ], [ 4.45337993984835, 50.809427442613575 ], [ 4.453908379181032, 50.809779358587029 ], [ 4.454039448932861, 50.809918152593113 ], [ 4.454112787788895, 50.809980558282049 ], [ 4.454240714045307, 50.810068437093044 ], [ 4.45433599359087, 50.810117117496432 ], [ 4.454565545603896, 50.810248699859358 ], [ 4.454700604726209, 50.810317766011003 ], [ 4.454834092132976, 50.810358148134263 ], [ 4.455041660883228, 50.810428656304083 ], [ 4.455186178575123, 50.810471600110908 ], [ 4.455363830740108, 50.810477590736674 ], [ 4.455983702273318, 50.810468046923617 ], [ 4.456227901339205, 50.810476762987491 ], [ 4.456432795912217, 50.810484250495946 ], [ 4.456688335379567, 50.81048711367837 ], [ 4.456998663551957, 50.810502161241807 ], [ 4.457230985048346, 50.810530930962187 ], [ 4.457416033979306, 50.810549040161369 ], [ 4.457724552008512, 50.810580896192533 ], [ 4.457866672932905, 50.810578211536118 ], [ 4.457890588741428, 50.81050824828521 ], [ 4.457887020118474, 50.81042685073956 ], [ 4.457798652096336, 50.810360742836785 ], [ 4.457727173566059, 50.810319412442048 ], [ 4.457627188998458, 50.810225016456123 ], [ 4.457393576863735, 50.810168651217012 ], [ 4.456572380450173, 50.810036977401147 ], [ 4.45618848042379, 50.810070911040398 ], [ 4.455562338544978, 50.810142852051051 ], [ 4.455323340669073, 50.810174133474696 ], [ 4.455175328426137, 50.81018586515669 ], [ 4.454826706000943, 50.810097521165765 ], [ 4.454724122124763, 50.810034997604319 ], [ 4.454409688947099, 50.80980011191685 ], [ 4.453946694718694, 50.809384180534011 ], [ 4.45351901956065, 50.808981556081299 ], [ 4.453208964191832, 50.808709227876669 ], [ 4.453018464270285, 50.808585420131664 ], [ 4.452819900521308, 50.808498531865418 ], [ 4.451607287006042, 50.808333795340872 ], [ 4.451240607377989, 50.808415684992966 ], [ 4.451042458973285, 50.808478687066078 ], [ 4.450436622803752, 50.808637371609791 ], [ 4.450249631771732, 50.808683037919145 ], [ 4.449150423025646, 50.808629260325382 ], [ 4.447858360958615, 50.808412015129342 ], [ 4.44724542448552, 50.808693382401444 ], [ 4.446448779727884, 50.809044538916886 ], [ 4.446843302631927, 50.809475703572659 ], [ 4.446943958185123, 50.809648919202175 ], [ 4.447439067107948, 50.810135049789046 ], [ 4.44709803262301, 50.810259281759095 ], [ 4.44684737125113, 50.810405704099679 ], [ 4.44678668194265, 50.810486892650772 ], [ 4.446784881435351, 50.81054723178643 ], [ 4.446767455566866, 50.81063150403174 ], [ 4.446712514086895, 50.810780974742599 ], [ 4.446742806044893, 50.810890646078349 ], [ 4.447009004998401, 50.811031954767216 ], [ 4.44728265604923, 50.811122385622987 ], [ 4.447521169430394, 50.811208065018612 ], [ 4.447804840246494, 50.811288949996673 ], [ 4.447740160835704, 50.811427738810231 ], [ 4.447640571494478, 50.811520669077169 ], [ 4.447574582322994, 50.811595302850257 ], [ 4.447177459939688, 50.81199815072425 ], [ 4.446604365879169, 50.812589665398441 ], [ 4.446506366249276, 50.812674520961203 ], [ 4.446185842746051, 50.813011961490837 ], [ 4.445811409437951, 50.813530874325991 ], [ 4.445795431704873, 50.81353840917285 ], [ 4.445607821740748, 50.813628295083582 ], [ 4.445526013319917, 50.813667274141217 ], [ 4.445316571331036, 50.813764229899689 ], [ 4.444828669770566, 50.81398192015903 ], [ 4.444617830971321, 50.814079504818515 ], [ 4.444133847201429, 50.814266174112767 ], [ 4.443954222533857, 50.81433856427045 ], [ 4.443826384397015, 50.814370293151946 ], [ 4.443698261872326, 50.814388255940557 ], [ 4.443505780871048, 50.814362193305108 ], [ 4.443376057622745, 50.81434315586521 ], [ 4.443251692396904, 50.814338282447572 ], [ 4.443119115842213, 50.814345064672956 ], [ 4.442959651415291, 50.814352735924537 ], [ 4.442804284487167, 50.81435512721972 ], [ 4.442635656607075, 50.814377124740084 ], [ 4.442443944594983, 50.815154505594549 ], [ 4.441918670971424, 50.817170129674707 ], [ 4.441918404868136, 50.817171166234104 ], [ 4.441974413674962, 50.817177792771517 ], [ 4.442151185406324, 50.817196630465709 ], [ 4.442201113832547, 50.817201953139424 ] ] ], [ [ [ 4.446039525816897, 50.821277125288404 ], [ 4.44713504905439, 50.821363216768972 ], [ 4.447155524695571, 50.821324146738547 ], [ 4.447173780677, 50.821273817612081 ], [ 4.447240097799864, 50.821090989840698 ], [ 4.447329437486045, 50.820840434804879 ], [ 4.44734998863235, 50.820782572953924 ], [ 4.447465963180939, 50.820463993589392 ], [ 4.44756112264052, 50.820257618186851 ], [ 4.447599597228692, 50.820183158346133 ], [ 4.447697800535652, 50.820015076373302 ], [ 4.447757675468038, 50.819924061102029 ], [ 4.447828459415809, 50.81982243066664 ], [ 4.447976153789416, 50.819633998295053 ], [ 4.448044844693967, 50.819553854252838 ], [ 4.448206758300435, 50.819382941561976 ], [ 4.448324921387618, 50.81927121007174 ], [ 4.448496667525134, 50.819125281279128 ], [ 4.448603952411639, 50.819042863010971 ], [ 4.448749520110002, 50.818941540166755 ], [ 4.448882623271054, 50.818854249487238 ], [ 4.449031332207508, 50.818764790374537 ], [ 4.449209125495624, 50.818671625208992 ], [ 4.449227113393574, 50.818662901935603 ], [ 4.449358004972948, 50.818599425564358 ], [ 4.449510579054927, 50.818530369516985 ], [ 4.449630547049712, 50.818480483783929 ], [ 4.449742437433955, 50.818437165954734 ], [ 4.449879009407696, 50.818387987561096 ], [ 4.450060548111107, 50.818328619325669 ], [ 4.450300391923265, 50.818258692097778 ], [ 4.450548337131835, 50.818196399825759 ], [ 4.450566473188753, 50.818180385595788 ], [ 4.450562438612321, 50.818145508835876 ], [ 4.450554942127608, 50.818113307745655 ], [ 4.450549834215688, 50.818109613734208 ], [ 4.450489003033804, 50.818105826522981 ], [ 4.449976620501121, 50.818049641215005 ], [ 4.448809398008414, 50.817944913357998 ], [ 4.448467916667109, 50.817913324964124 ], [ 4.448175973015204, 50.817888713605917 ], [ 4.446912676122762, 50.817776840818034 ], [ 4.446310050262023, 50.817721239530826 ], [ 4.445995248259752, 50.817688277681711 ], [ 4.445247992943466, 50.81761451814355 ], [ 4.444818382299368, 50.81757632482357 ], [ 4.444570570778015, 50.817551239150809 ], [ 4.44427309190794, 50.81752112498306 ], [ 4.443957721861065, 50.817486180321531 ], [ 4.443591943880584, 50.81744893001153 ], [ 4.443586296697696, 50.817449329192279 ], [ 4.443581762796033, 50.817453728022272 ], [ 4.443523096476181, 50.817460867581161 ], [ 4.443006200693899, 50.817403504040904 ], [ 4.442181056465773, 50.817311928073352 ], [ 4.442127824184, 50.817674621897488 ], [ 4.442040292757452, 50.818271067372173 ], [ 4.442005308450312, 50.818377852207362 ], [ 4.441989818661011, 50.818376966992702 ], [ 4.441917128947659, 50.818888007014557 ], [ 4.441768131797336, 50.81993548612698 ], [ 4.441734040580442, 50.82017514283303 ], [ 4.441625375214533, 50.820939029306743 ], [ 4.442270165708149, 50.820982501798625 ], [ 4.442410208674127, 50.820991941923531 ], [ 4.442686888368726, 50.821010589436661 ], [ 4.443067451057906, 50.821036245354229 ], [ 4.443301451738888, 50.821052016333205 ], [ 4.443511836197242, 50.821066200878157 ], [ 4.443664000837269, 50.821076458770747 ], [ 4.443827818330348, 50.821087500080509 ], [ 4.443893702345154, 50.821091939664278 ], [ 4.44413400585307, 50.821108132160553 ], [ 4.444353277309724, 50.821122911100304 ], [ 4.4445513368143, 50.821136261256854 ], [ 4.444638007658563, 50.821142098346456 ], [ 4.444888260911519, 50.821158969977859 ], [ 4.445173573626443, 50.821178191454898 ], [ 4.445177448450499, 50.821178457415613 ], [ 4.445211856954018, 50.821209101799127 ], [ 4.445215518568216, 50.821212362849217 ], [ 4.445917115999409, 50.821267505234104 ], [ 4.446039525816897, 50.821277125288404 ] ] ] ] } }
]
}
